"nom";"adresse";"latitude";"longitude";"id";"image"
"16 rue bastian";"16 rue Bastian";"48.5963009";"7.7184666";"1";"92817"
"22 rue du général castelnau";"22 rue du Général de Castelnau";"48.5891139";"7.750943";"2";"99729"
"4 rue Joseph Guerber";"4 rue Joseph Guerber";"48.5655122";"7.7569232";"3";"92817"
"Ancien Hôtel du Dragon";"2 quai Saint Nicolas";"48.57848107258151";"7.746509313583374";"4";"55828"
"Eglise Saint pierre le jeune (catholique)";"7 rue Saint Léon";"48.58829683135665";"7.748762369155884";"6";"92817"
"1 rue Saint Léon";"1 rue Saint Léon";"48.58871198954252";"7.748309075832367";"7";"92817"
;"98 Route du Polygone";"48.56528747916544";"7.759437561035156";"8";"92817"
;"61 Route du Polygone";"48.568135805172545";"7.757763902481429";"9";"92817"
;"55 Route du Polygone";"48.5684959";"7.7572822";"10";"86453"
"Immeuble le Pythagore";"43 Route du Polygone";"48.56899708320078";"7.757216691970825";"11";"43319"
;"55 avenue Jean Jaurès";"48.5683864";"7.7678124";"12";"92817"
;"23 rue Kageneck";"48.585205";"7.738728";"13";"94643"
"Crédit Foncier d'Alsace et de Lorraine";"1 Rue du Dôme";"48.58415215923924";"7.749534845352173";"14";"76929"
;"14 rue Baldner";"48.568954098403246";"7.758453340475398";"15";"109595"
;"50 Route du Polygone";"48.569002407795686";"7.756723165512085";"16";"100721"
;"14 rue de la Schwanau";"48.57112332684186";"7.756023108959198";"17";"97132"
;"20 boulevard de Lyon";"48.577703821518504";"7.731671333312988";"18";"92817"
;"8 Rue  Turenne";"48.5895387473942";"7.756092846393585";"19";"47489"
;"61 rue de Sélestat";"48.564849053436035";"7.765955328941345";"20";"18758"
;"17 rue d' Obernai";"48.5784265";"7.7315554";"22";"84955"
"Gare de Strasbourg";"20 Place de la Gare";"48.58503931799268";"7.7345359325408935";"23";"80261"
;"5 rue Moll";"48.5859093";"7.7373978";"25";"92817"
"Poste d'aiguillage";"1 square de l' Aiguillage";"48.56333139656308";"7.752807140350342";"26";"90681"
;"4 rue de Koenigshoffen";"48.58047560738439";"7.7285706996917725";"27";"65569"
;"95 rue de Bâle";"48.56728075956029";"7.765445709228516";"28";"92817"
;"9 avenue Léon Dacheux";"48.564502925175546";"7.756540775299072";"29";"86848"
;"7 avenue Léon Dacheux";"48.56441772400963";"7.7561599016189575";"30";"53477"
;"14 avenue Léon Dacheux";"48.5644941";"7.7571108";"31";"92817"
"Cathédrale notre dame de Strasbourg";"2 Place de la Cathédrale";"48.58178869231801";"7.750918865203857";"33";"92817"
;"9 rue de Soultzmatt";"48.568203";"7.7539472";"34";"92817"
"Bains municipal";"10 boulevard de la Victoire";"48.5836447";"7.7602085";"35";"58670"
"Maison égyptienne";"10 Rue du Général Rapp";"48.590464";"7.7513";"36";"19610"
;"9 quai Zorn";"48.5888216";"7.7594496";"37";"92817"
"Eglise saint Paul";"1 quai Zorn";"48.586917";"7.7593179";"38";"92817"
;"11 rue de Koenigshoffen";"48.5805547";"7.7277286";"39";"NULL"
;"8 Rue Jules Rathgeber";"48.56605072136775";"7.757710218429565";"40";"99167"
;"18 Rue Jules Rathgeber";"48.56580932507943";"7.75634765625";"41";"63312"
;"12 Rue Jules Rathgeber";"48.565944223147284";"7.757281064987183";"42";"92817"
"Cour des boecklin";"17 rue nationale";"48.6145584";"7.7549655";"43";"102790"
;"24 rue Saint Urbain";"48.57092277512523";"7.761513590812683";"44";"NULL"
"La Maison Kammerzell";"16 Place de la Cathédrale";"48.58194129186808";"7.749803066253662";"45";"86721"
;"56 Allée de la Robertsau";"48.5903645";"7.7680991";"46";"73275"
;"8 rue ehrmann";"48.59119931886123";"7.755564451217651";"47";"2746"
;"2 avenue de la Paix";"48.58873682795832";"7.755199670791626";"48";"92817"
;"42 rue de saint Dié";"48.5687568";"7.7485659";"49";"21632"
;"24 rue de saint Dié";"48.5695739";"7.7465375";"50";"92817"
;"8 rue de l' Eglise";"48.6154064";"7.7549895";"52";"92817"
"Eglise notre seigneur Jésus Christ";"27 rue nationale";"48.6154089";"7.7555597";"53";"102781"
;"1 Place Kléber";"48.58312835868307";"7.746517360210419";"56";"63775"
;"1 place du Maréchal de Lattre de Tassigny";"48.57632319541554";"7.753332853317261";"57";"92817"
;"11 rue des Jacinthes";"48.5960154";"7.7646475";"60";"92817"
"Villa Vénitienne";"55 rue de Hochfelden";"48.59575851331247";"7.727068662643433";"61";"NULL"
"Ecole du Schlulthfeld";"62 rue de saint Dié";"48.56804219678209";"7.749427556991577";"62";"92817"
;"38 rue de saint Dié";"48.5690205";"7.7478947";"63";"92817"
;"125 Route du Polygone";"48.563977515699314";"7.761266827583313";"64";"92817"
;"45 Avenue de Colmar";"48.57008328895248";"7.75460958480835";"65";"92817"
;"12 rue Humann";"48.576979796078966";"7.737915515899658";"66";"53229"
;"10 Rue Jules Rathgeber";"48.565953098007554";"7.757436633110046";"67";"99478"
;"20 Rue Jules Rathgeber";"48.565708151292405";"7.75610625743866";"68";"105236"
;"28 Rue Jules Rathgeber";"48.56521292930961";"7.754290401935577";"69";"63029"
;"31 Rue Jules Rathgeber";"48.5651709";"7.7547111";"70";"92817"
"Directoire et Consistoire de l'Eglise de la Confession d'Augsbourg";"1 quai Saint Thomas";"48.5791695863722";"7.745500802993774";"71";"74478"
;"1 quai Saint Thomas";"48.5789651";"7.746253";"72";"NULL"
;"20 rue Humann";"48.5761761";"7.7383361";"73";"92817"
;"48 Route du Polygone";"48.569179";"7.7568769";"74";"108607"
"Lycée internationale des pontonniers";"1 rue des Pontonniers";"48.58426571642877";"7.756562232971191";"75";"56016"
"Palais du rhin";"2 place de la République";"48.5875090859361";"7.752496004104614";"77";"69830"
;"82 Route du Polygone";"48.5670134407602";"7.7581340074539185";"78";"92817"
;"84 Route du Polygone";"48.56689776534283";"7.758176922798157";"79";"99000"
;"20 rue d' Erstein";"48.5691461716462";"7.756444215774536";"80";"76118"
"Gare de marchandise à Cronenbourg";"48 chemin Haut";"48.5924127788842";"7.73187518119812";"81";"92817"
;"9 rue de la Mésange";"48.58438991931265";"7.747201323509216";"82";"107714"
;"13 rue de la Mésange";"48.58438637066306";"7.747555375099182";"83";"103050"
;"13 Boulevard du Président Wilson";"48.58837489554941";"7.7391064167022705";"84";"92817"
"Ancienne Strassburger Bank";"24 Rue du Vieux Marché aux Vins";"48.583928592776736";"7.742467224597931";"85";"5705"
;"1 rue de la Mésange";"48.58438459633816";"7.74647444486618";"86";"92817"
;"2 rue de la Mésange";"48.58425507045306";"7.746550887823105";"87";"92817"
;"33 Rue des Grandes Arcades";"48.58303254266508";"7.74711549282074";"88";"71643"
;"41 Rue des Grandes Arcades";"48.5828142943905";"7.74723082780838";"89";"76977"
;"25 Rue du Vieux Marché aux Vins";"48.58408118586623";"7.74198979139328";"90";"92817"
"Gaz de Strasbourg";"13 Place des Halles";"48.587473";"7.742432";"91";"92817"
;"12 rue des Halles (rue)";"48.58852747521431";"7.740490436553955";"92";"92817"
;"28 Rue des Grandes Arcades";"48.58250555131932";"7.747238874435425";"93";"97550"
;"10 Rue des Grandes Arcades";"48.58280719686981";"7.746890187263489";"94";"90781"
;"22 rue d' Erstein";"48.5692555";"7.7566925";"95";"92817"
;"18 rue d' Erstein";"48.5691636";"7.7560872";"96";"92817"
;"16 rue d' Erstein";"48.5691176";"7.7557845";"97";"107989"
;"24 rue d' Erstein";"48.569179";"7.7568769";"99";"108607"
;"1 Place de l' Etoile";"48.5734056558272";"7.752141952514648";"100";"87229"
;"90 Route du Polygone";"48.56578625037388";"7.758919894695282";"102";"53230"
;"12 rue du hohwald";"48.57626640793043";"7.72912323474884";"103";"86949"
;"13 rue du hohwald";"48.57621316960526";"7.729815244674683";"104";"81866"
;"58 rue Saint Erhard";"48.5648677";"7.7547433";"105";"54499"
"Villa Nuss";"3 route d' Oberhausbergen";"48.59048967961256";"7.723308205604553";"106";"97510"
"Bâtiment de l'Aubette";"31 Place Kléber";"48.58391084936435";"7.74585485458374";"107";"55573"
"Villa Haentzler";"9 rue Simonis";"48.56472930241106";"7.758683442327879";"108";"92817"
;"4 route d' Oberhausbergen";"48.591059";"7.7243282";"109";"92817"
;"18 route d' Oberhausbergen";"48.5913737";"7.7227949";"110";"92817"
"L'esca";"28 avenue de la Marseillaise";"48.584510249084865";"7.757688984655715";"111";"90195"
;"21 avenue de la Paix";"48.590560643985896";"7.755864858627319";"112";"92817"
;"23 avenue de la Paix";"48.59085159687466";"7.755993604660034";"113";"92817"
;"11 rue de Flandre";"48.58146574756495";"7.774195075035095";"114";"92817"
;"35 rue Vauban";"48.58115699625636";"7.775423526763916";"116";"92817"
;"199 route de Lyon";"48.52752634273191";"7.710052728652954";"117";"303"
;"145 route de Lyon";"48.52895448399991";"7.7094197273254394";"119";"308"
"Mairie d'Illkirch";"181 route de Lyon";"48.52874488369878";"7.711034417152405";"120";"92817"
;"49 rue de la Grossau";"48.5648323";"7.763552";"121";"92817"
"Ecole du Ziegelfeld";"64 rue de la Grossau";"48.5648475";"7.7635057";"122";"4497"
;"10 rue de Rhinau";"48.5647609";"7.7636469";"123";"92817"
;"19 quai Saint Nicolas";"48.578908733024";"7.750122249126434";"124";"92817"
"Ancienne douane";"6 rue de la Douane";"48.5796848";"7.7500286";"125";"75565"
;"16 Rue Jacques Kablé";"48.59244471164916";"7.746407389640808";"126";"92817"
"Villa Stephan";"75 Allée de la Robertsau";"48.591965718055704";"7.76907205581665";"128";"87824"
;"20 quai Saint Nicolas";"48.57894777238624";"7.750205397605896";"129";"92817"
;"22 quai Saint Nicolas";"48.57904359614761";"7.7504172921180725";"130";"64726"
;"23 quai Saint Nicolas";"48.579121674633654";"7.750532627105713";"131";"55864"
;"12 place de Bordeaux";"48.5936482";"7.7590996";"132";"92817"
"Opéra National du Rhin";"19 place Broglie";"48.58584839319844";"7.752120494842529";"133";"61416"
"Bibliothéque Nationale Universitaire (BNU)";"6 place de la République";"48.58724650140043";"7.755693197250366";"134";"70121"
"Archive municipale";"32 Avenue du Rhin";"48.572319521444015";"7.7630531787872314";"135";"80024"
"Eglise Saint Florent";"2 Place Saint Florent";"48.59636519221907";"7.722213864326477";"136";"94618"
;"4 rue du Kochersberg";"48.597887179164736";"7.737848460674286";"137";"92817"
;"9 rue de l' Abreuvoir";"48.5793825";"7.7607093";"138";"108101"
;"10 Place du Temple-Neuf";"48.5830341";"7.7477496";"139";"69602"
"Ancienne commanderie";"5 rue du Port du Rhin";"48.57690526345975";"7.787461280822754";"140";"92817"
;"1 rue de l' Ancienne école";"48.5615961";"7.7636709";"141";"65930"
;"6 Boulevard Gambetta";"48.59210409444912";"7.757962346076965";"142";"86206"
;"16 Rue Oberlin J.F.";"48.59043113392952";"7.753515243530273";"143";"92817"
;"10 rue de la Minoterie";"48.57767897768013";"7.7898108959198";"144";"92817"
;"2 Allée du Sommerhof";"48.57541103872003";"7.712295055389404";"145";"92817"
;"21 route de Mittelhausbergen";"48.5923252";"7.7247331";"146";"92817"
;"25 rue des Foulons";"48.5735609";"7.7275009";"147";"3623"
;"37 rue de Molsheim";"48.574999320579685";"7.730786204338074";"148";"86500"
;"1 cour Fernand Jaenfer";"48.592214085670996";"7.721124887466431";"149";"92817"
;"10 rue de la Montagne verte";"48.5734056558272";"7.725491523742676";"150";"50112"
;"18 rue des Foulons";"48.573856430239594";"7.728138864040375";"151";"66220"
;"18 rue des Foulons";"48.5737021";"7.7282573";"152";"NULL"
;"20 rue des Foulons";"48.5735975";"7.7280808";"153";"92817"
;"11 rue des Foulons";"48.5735845";"7.7287411";"154";"92817"
;"21 rue de Thann";"48.567634";"7.7601839";"155";"92817"
"Maison des Tanneurs";"42 Rue du Bain-aux-Plantes";"48.58138589826939";"7.741807401180267";"157";"103855"
"Klein Metzig (Petites Boucheries)";"4 rue de la Haute Montée";"48.5843215";"7.7455105";"159";"55194"
"Galeries Lafayette";"2 rue des Francs Bourgeois";"48.582590722010075";"7.745361328125";"160";"NULL"
;"25 rue du Kronthal";"48.59745258384008";"7.718169093132019";"162";"78250"
"Salle de la marseillaise";"34 boulevard Clémenceau";"48.5913192";"7.748969";"163";"71831"
"Siège d'Arte";"42 rue Lauth";"48.59379651352152";"7.766057252883911";"165";"92817"
;"18 rue du General Uhrich";"48.5937972";"7.7676545";"166";"92817"
;"46 rue Lauth";"48.59321463998365";"7.766110897064209";"167";"92817"
;"36 quai Mullenheim";"48.592495";"7.7662033";"169";"34229"
;"46 avenue des Vosges";"48.58983680270156";"7.751069068908691";"170";"69746"
"Palais des fêtes";"5 rue Sellénick";"48.59066709035905";"7.749207615852356";"171";"54941"
"Scala";"96 Route du Polygone";"48.56549337819642";"7.75908887386322";"172";"78878"
"Restaurant Coucou des bois";"44 Allee David Goldschmidt";"48.53001312989112";"7.773674726486206";"173";"92817"
;"2 rue de la Lisiere";"48.52955130722386";"7.773283123970032";"174";"92817"
;"10 rue de la Breitlach";"48.5310822";"7.7731231";"175";"92817"
;"18 rue de la Breitlach";"48.5310163";"7.7726331";"176";"92817"
;"24 rue de la Breitlach";"48.531022908242484";"7.771948724985123";"177";"NULL"
;"25 rue de la Breitlach";"48.5309483";"7.7721318";"179";"92817"
;"1 Allee David Goldschmidt";"48.5329938";"7.7717462";"180";"92817"
;"16 Allee David Goldschmidt";"48.5321586";"7.7730315";"181";"92817"
"Ancien Hôpital Stéphanie";"28 rue de la Lisiere";"48.52633974696605";"7.770209312438965";"182";"81826"
"Maison de retraite de la faisanderie";"26 rue de la Lisiere";"48.525394713683404";"7.769436836242676";"183";"92817"
;"24 rue de la Lisiere";"48.5267968";"7.7710739";"184";"92817"
"Villa Greiner";"1 rue Joseph Massol";"48.585599994293844";"7.75485634803772";"185";"90897"
;"1 place Broglie";"48.58466493889794";"7.74860143661499";"186";"70681"
"Villa Berst";"1 rue de Metzeral";"48.57104701079564";"7.769750654697418";"187";"79765"
;"74 Allée de la Robertsau";"48.5916241";"7.769395";"188";"955"
;"72 Allée de la Robertsau";"48.5913006";"7.7692721";"189";"31987"
;"42 rue Saint Florent";"48.5957464";"7.7221776";"190";"21652"
;"14 Boulevard du Président Wilson";"48.58665568120661";"7.737875282764435";"191";"92817"
;"11 Place des Halles";"48.58792779899478";"7.7420783042907715";"192";"92817"
;"1 rue de Sébastopol";"48.5861542";"7.7430714";"193";"85023"
;"9 Quai Kléber";"48.586205020919614";"7.744014859199524";"194";"92817"
"Nouvel Hôtel de Police";"34 route de l' Hôpital";"48.572653173051044";"7.749416828155518";"195";"92817"
;"12 Quai Kléber";"48.58647293362188";"7.744647860527039";"196";"92817"
;"13 Quai Kléber";"48.58662551902942";"7.745055556297302";"197";"92817"
;"14 Quai Kléber";"48.58673729641933";"7.745334506034851";"198";"92817"
;"14 Quai Kléber";"48.586829556935875";"7.745642960071564";"199";"92817"
;"16 Quai Kléber";"48.58701407746366";"7.746069431304932";"200";"110062"
;"18 Boulevard du Président Wilson";"48.58691117186782";"7.738148868083954";"201";"92817"
"Palais de Justice";"11 rue de la Nuée Bleue";"48.585981463537976";"7.747340798377991";"202";"63268"
;"15 rue de la Nuée Bleue";"48.58556273435284";"7.747525870800018";"203";"92817"
;"29 Rue du Vieux Marché aux Vins";"48.58421603518974";"7.742722034454346";"204";"65672"
"Presbytère Catholique Saint Jean";"13 quai Saint Jean";"48.58442185714774";"7.740232944488525";"205";"97558"
;"1 Quai Kléber";"48.58494705420787";"7.74137020111084";"206";"92817"
;"1 Quai de Paris";"48.5842777";"7.7413562";"207";"92817"
;"10 quai Saint Jean";"48.58396407958285";"7.73935854434967";"208";"86821"
;"8 quai Saint Jean";"48.58378309661121";"7.739095687866211";"209";"92817"
;"9 quai Saint Jean";"48.58384697302813";"7.739245891571045";"210";"92817"
;"7 place Saint Pierre Le Vieux";"48.58308754817911";"7.73962140083313";"211";"92817"
"Villa Faist";"24 rue Twinger";"48.58902069470044";"7.769852578639984";"212";"67021"
"Eglise Saint pierre le jeune (protestant)";"5 Place Saint Pierre le Jeune";"48.58544385721463";"7.746391296386719";"213";"92817"
"Saint Pierre le vieux (protestant)";"12 place Saint Pierre Le Vieux";"48.58293850084117";"7.740112245082855";"214";"57502"
;"7 quai Saint Jean";"48.583676635736914";"7.738816738128662";"215";"92817"
;"2 rue du Maire Kuss";"48.5834763";"7.7385078";"216";"78031"
;"4 quai Desaix de Veygoux";"48.58300592707231";"7.739312946796417";"217";"92817"
;"2 quai Desaix de Veygoux";"48.58278945306372";"7.739015221595764";"218";"NULL"
;"3 quai Desaix de Veygoux";"48.58298108583972";"7.739208340644836";"219";"47515"
;"2 quai Desaix de Veygoux";"48.634145";"7.7160455";"222";"NULL"
;"46 rue Saint Erhard";"48.5656079";"7.7541722";"223";"92817"
;"89 Route du Polygone";"48.5645663";"7.7604818";"224";"92817"
;"9 place Saint Pierre Le Vieux";"48.5832933747327";"7.740393877029419";"225";"92817"
"Etap Hôtel Place de la gare";"13 place de la Gare";"48.5850748040189";"7.736692428588867";"226";"92817"
;"6 Boulevard du Président Wilson";"48.5859051699195";"7.736949920654297";"227";"90997"
"Ecole d'architecture de Strasbourg";"8 Boulevard du Président Wilson";"48.58606485410551";"7.737298607826233";"228";"92045"
"Parking Saint Aurélie";"1 Boulevard de Metz";"48.58288881829753";"7.732722759246826";"229";"55700"
;"24 Boulevard du Président Wilson";"48.58746650475271";"7.739428281784058";"230";"81335"
"Ancienne glacière de Strasbourg";"5 rue des Moulins";"48.580645955463495";"7.742035388946533";"231";"102080"
;"17 rue Simonis";"48.5641696";"7.7588235";"232";"47334"
;"21 rue Simonis";"48.5637672";"7.7589735";"233";"92817"
;"23 rue Simonis";"48.5636605";"7.7590144";"234";"92817"
"Belle Maison rasé à neudorf!";"12 rue Simonis";"48.563792911074074";"7.758648991584778";"235";"1701"
;"13 Route du Polygone";"48.5712479";"7.7563653";"236";"92817"
;"25 boulevard de Lyon";"48.5769815706638";"7.731322646141052";"237";"91708"
;"67 avenue des Vosges";"48.5903495246824";"7.747933566570282";"238";"77277"
;"29 boulevard de Lyon";"48.57730986778603";"7.7311670780181885";"239";"92817"
;"1 Rue de La Broque";"48.57750152133665";"7.7309417724609375";"240";"84586"
;"33 boulevard de Lyon";"48.57750152133665";"7.731177806854248";"241";"85753"
;"37 boulevard de Lyon";"48.578099546726534";"7.730963230133057";"242";"603"
;"30 boulevard de Lyon";"48.5785368";"7.731205";"243";"606"
;"28 boulevard de Lyon";"48.5782201";"7.73142150000001";"244";"61569"
;"2 rue d' Obernai";"48.57840299310598";"7.734053134918213";"245";"92817"
;"11 rue de Molsheim";"48.57784933518382";"7.734299898147583";"246";"65726"
"Hôtel ibis";"7 rue de Molsheim";"48.57861593684604";"7.735308408737183";"247";"94445"
;"18 boulevard de Lyon";"48.577513943300964";"7.731735706329346";"248";"92817"
;"41 boulevard de Lyon";"48.57939672288521";"7.730598449707031";"249";"92817"
;"8 rue de Molsheim";"48.57853785757886";"7.734278440475464";"250";"NULL"
;"10 rue de Molsheim";"48.57806937944308";"7.733919024467468";"251";"92817"
"Gendarmerie Départementale";"2 rue de Molsheim";"48.58053948798133";"7.735276222229004";"252";"92817"
;"20 rue Sainte Marguerite";"48.58141961243177";"7.735469341278076";"253";"72079"
;"2 rue Saint Michel";"48.582105";"7.7358936";"254";"92817"
;"31 route d' Altenheim";"48.5412213";"7.7671505";"255";"92817"
;"15 route d' Altenheim";"48.5424645";"7.7663582";"256";"92817"
;"35 rue Saint Erhard";"48.5658649";"7.753956";"257";"92817"
"Siège de la direction de l'environnement de la CUS";"10 rue de Soleure";"48.577508619602355";"7.754577398300171";"258";"65203"
;"18 rue de Soleure";"48.57712886098773";"7.753686904907227";"259";"78428"
;"11 rue de Berne";"48.5771516";"7.7554183";"260";"65193"
"Hôtel Brion";"22 rue Sleidan";"48.58574193667453";"7.768406867980957";"261";"99511"
"Consulat de Russie";"5 place Sébastien Brant";"48.58666987516612";"7.762924432754517";"262";"92817"
"Villa Back";"4 place Sébastien Brant";"48.586588259844525";"7.762640118598938";"263";"92817"
;"32 rue de Dettwiller";"48.7529113";"7.4701127";"264";"92817"
;"4 rue Finkmatt";"48.5886863";"7.7480214";"265";"92817"
;"6 rue Finkmatt";"48.589002953075784";"7.747955024242401";"266";"92817"
"Consulat de Roumanie";"64 Allée de la Robertsau";"48.5908615";"7.7686637";"267";"92817"
;"2 rue Saint Aloïse";"48.56470882740056";"7.761744260787964";"268";"886"
;"8 boulevard de Lyon";"48.5762527";"7.7319935";"269";"NULL"
"Consulat d'italie";"63 Allée de la Robertsau";"48.59099352450513";"7.768149375915527";"270";"106400"
;"40 rue Baldner";"48.568602";"7.760685";"271";"92817"
;"44 rue de la Course";"48.58298108583972";"7.73449033498764";"272";"92817"
;"48 rue de la Course";"48.5827668";"7.7340009";"273";"92817"
;"49 rue de la Course";"48.5827408";"7.7337988";"274";"92817"
"Banque de France";"3 place Broglie";"48.58489737363862";"7.748987674713135";"288";"105421"
"Hôtel Livio";"8 Rue du Dôme";"48.5835151696496";"7.749953269958496";"289";"100577"
;"8 Rue du Dôme";"48.58354888239176";"7.7502429485321045";"290";"NULL"
"Maison Gallay";"7 Rue du Dôme";"48.5834986";"7.7501351";"291";"92817"
;"11 Rue du Dôme";"48.5832812";"7.7503906";"292";"92817"
;"9 Rue du Dôme";"48.583366";"7.7502939";"293";"92817"
;"15 Rue du Dôme";"48.5831466";"7.7505364";"294";"92817"
;"17 Rue du Dôme";"48.5830657";"7.7506285";"295";"74303"
"Hôtel de ville";"9 rue Brûlée";"48.58460638646645";"7.750736474990845";"296";"70564"
"Hôtel du gouverneur militaire";"13 rue Brûlée";"48.58493285976451";"7.751981019973755";"297";"96594"
;"6 rue du Temple-Neuf";"48.5832315";"7.7489912";"298";"92817"
;"8 rue du Temple-Neuf";"48.5831197";"7.7490797";"299";"92817"
"Eglise protestante du Temple Neuf";"19 Place du Temple-Neuf";"48.5832614361845";"7.748236656188965";"300";"87418"
"Maison rouge";"22 Place Kléber";"48.583172717889134";"7.7448570728302";"301";"78601"
;"13 rue Sainte Elisabeth";"48.5773699";"7.7445096";"302";"92817"
;"28 rue des Renards";"48.5933179";"7.7187824";"303";"92817"
;"18 rue des Renards";"48.5937305";"7.7189378";"304";"92817"
;"19 rue Jules Verne";"48.595215689167944";"7.719038128852844";"305";"84519"
;"2 rue des Ormes";"48.59485380316472";"7.719343900680542";"306";"92817"
;"13 rue des Ormes";"48.5959131";"7.7194829";"307";"92817"
;"14 rue des Renards";"48.5933781";"7.7188051";"308";"92817"
;"1930 rue des Renards";"48.5933179";"7.7187824";"309";"NULL"
"Lycée";"5 rue des Renards";"48.5933179";"7.7187824";"310";"94594"
;"6 rue des Renards";"48.5926715";"7.7185497";"311";"92817"
;"47 rue du Gazon";"48.5877121";"7.7178417";"312";"92817"
;"49 rue du Gazon";"48.5875684";"7.7178781";"313";"92817"
;"62 rue de la Charmille";"48.5873449";"7.7179348";"314";"92817"
;"29 rue de la Rotonde";"48.5950648";"7.7259994";"315";"92817"
;"4 rue de la Rotonde";"48.5935503";"7.7257302";"316";"92817"
"Résidence Tuileries Musau (Maison de Retraite Spécialisée)";"14 rue de Gerstheim";"48.5657445";"7.7800308";"317";"92817"
;"5 rue d' Ensisheim";"48.5654493";"7.7698311";"318";"92817"
;"9 rue d' Ensisheim";"48.565328";"7.7695776";"319";"92817"
;"7 rue Baldner";"48.5692772";"7.7574054";"320";"92817"
;"45 rue Saint Aloïse";"48.56641813850686";"7.764997780323029";"321";"97258"
"Eglise Saint Guillaume";"1 rue Munch";"48.5822257";"7.7572089";"322";"NULL"
"Villa Ganss";"6 rue des Carmes";"48.5704831";"7.7586223";"323";"92817"
;"11 rue de la Ziegelau";"48.56385148761467";"7.76471883058548";"324";"92817"
;"28 rue des Jardiniers";"48.5993478";"7.7837208";"325";"92817"
;"28 rue des Jardiniers";"48.5993478";"7.7837208";"326";"92817"
;"1 rue de la Douane";"48.579325742834534";"7.7484941482543945";"327";"86159"
;"11 Rue des Grandes Arcades";"48.5836890561838";"7.746844589710236";"328";"NULL"
;"4 rue Joseph Massol";"48.58529481682537";"7.755296230316162";"329";"92817"
;"15 Boulevard du Président Wilson";"48.5886804";"7.7397004";"330";"92817"
;"1 rue d' Eguisheim";"48.5689757";"7.7644916";"331";"92817"
;"13 avenue des Vosges";"48.587910056986416";"7.757136225700378";"332";"88495"
;"15 avenue des Vosges";"48.5879102";"7.7568264";"333";"96567"
;"11 rue des Balayeurs";"48.5811999";"7.7615208";"334";"92817"
;"9 rue des Balayeurs";"48.5809472";"7.7614775";"335";"92817"
;"3 rue des Planches";"48.58133918695975";"7.761078006745947";"336";"92817"
;"7 place Saint Nicolas aux Ondes";"48.5814203";"7.7615446";"337";"92817"
;"8 rue du Grand Couronné";"48.5707351";"7.7529022";"338";"NULL"
;"22 rue de Bâle";"48.56769254055368";"7.7644988894462585";"339";"72002"
;"105 rue de Bâle";"48.5665796";"7.7660136";"340";"92817"
;"51 rue de Sélestat";"48.5650711";"7.7646975";"341";"92817"
;"55 rue de Sélestat";"48.56504607923404";"7.7651989459991455";"342";"92817"
;"37 rue de Dossenheim";"48.5954417";"7.7248387";"343";"92817"
;"42 rue de Dossenheim";"48.5952745";"7.7248062";"345";"92817"
;"44 rue de Dossenheim";"48.5954329";"7.724837";"346";"92817"
;"52 Route du Polygone";"48.56878587381736";"7.756868004798889";"347";"75683"
;"8 rue de Benfeld";"48.5674603";"7.763541";"348";"1373"
;"9 rue Saint Aloïse";"48.56498040405332";"7.76158332824707";"349";"60366"
;"37 rue de la Grossau";"48.565908723690626";"7.76284396648407";"350";"59884"
;"36 rue de la Grossau";"48.5660116720463";"7.762607932090759";"351";"92817"
;"34 rue de la Grossau";"48.566173194044055";"7.762575745582581";"352";"92817"
"Château de pourtalès";"161 rue Mélanie";"48.608696380232274";"7.7996877619018505";"353";"73903"
;"19 rue de Bâle";"48.56801734819591";"7.764737606048584";"354";"NULL"
;"31 rue des Carmes";"48.5692912";"7.7580821";"355";"92817"
;"11 rue de Tintoret";"48.5635293";"7.7264833";"356";"92817"
;"12 rue de Tintoret";"48.5638629";"7.7263284";"357";"92817"
;"14 rue de Tintoret";"48.5636431";"7.7264676";"358";"92817"
"Université Marc Bloch Sciences Humaines 2";"9 place de l' Université";"48.584712845382334";"7.7620768547058105";"360";"83694"
;"9 place de l' Université";"48.5842624";"7.7613743";"361";"NULL"
;"10 place de l' Université";"48.58594065533775";"7.761948108673096";"363";"56935"
;"9 place Sébastien Brant";"48.585699354002195";"7.7628493309021";"364";"NULL"
"Préfecture du Bas Rhin";"5 place de la République";"48.58784973411136";"7.754974365234375";"365";"54992"
"Impôts direction Régionale et Départementale";"4 place de la République";"48.58832521834978";"7.754040956497192";"366";"72237"
"Bain rituel Juif (Miqvé)";"17 rue nationale";"48.6145584";"7.7549655";"367";"NULL"
;"3 quai Rouget de Lisle";"48.58710101478652";"7.76309609413147";"368";"74542"
;"14 rue Saint Florent";"48.5942609";"7.7217992";"370";"92817"
;"15 rue Saint Florent";"48.5946506";"7.7217403";"371";"92817"
;"14 place de la Gare";"48.5851091";"7.7363133";"372";"NULL"
;"33 route de l' Hôpital";"48.5714241529253";"7.750862538814545";"373";"15484"
"Le neubau (CCI)";"10 place Gutenberg";"48.5811271";"7.7482799";"374";"64326"
;"6 Quai Kellermann";"48.5860617";"7.7453237";"375";"92817"
;"2 Boulevard du Président Wilson";"48.5855503143664";"7.73662269115448";"376";"92817"
;"4 Boulevard du Président Wilson";"48.5857135482303";"7.736829221248627";"377";"92817"
;"10 Boulevard du Président Wilson";"48.58638422096383";"7.737548053264618";"378";"92817"
;"12 Boulevard du Président Wilson";"48.58652970964128";"7.737698256969452";"379";"92817"
;"16 Boulevard du Président Wilson";"48.58676213580574";"7.73798793554306";"380";"92817"
;"20 Boulevard du Président Wilson";"48.58707262710572";"7.738323211669922";"381";"92817"
;"22 Boulevard du Président Wilson";"48.587168435464555";"7.738460004329681";"382";"92817"
;"16 Avenue de l' Europe";"48.613100980093236";"7.7120161056518555";"384";"92817"
;"32 boulevard de Lyon";"48.578681";"7.731153";"385";"992"
;"34 boulevard de Lyon";"48.578806";"7.7311394";"386";"19870"
"Etude de Me Priozet";"1 rue de la Redoute";"48.8105932";"7.7958103";"387";"92817"
"Impôts: Trésorerie de Haguenau";"3 rue de la Redoute";"48.8106001";"7.7954459";"388";"92817"
"Siège du Crédit Agricole Alsace";"14 Boulevard de Metz";"48.583563";"7.7341316";"389";"15452"
;"10 Boulevard de Metz";"48.5831816";"7.7336794";"390";"92817"
"Vediorbis";"4 Boulevard de Metz";"48.58256410618464";"7.733194828033447";"391";"92817"
;"10 Boulevard de Metz";"48.5831816";"7.7336794";"392";"92817"
"Ecole Nationale d'Administration (ENA)";"1 rue Sainte Marguerite";"48.58112860523674";"7.737647294998169";"393";"82904"
;"1 quai Saint Jean";"48.582796550586906";"7.738097906112671";"394";"92817"
;"2 rue Saint Michel";"48.582105";"7.7358936";"395";"92817"
;"4 rue du Chevreuil";"48.5892208";"7.7444619";"396";"92817"
;"4 rue du Chevreuil";"48.5892208";"7.7444619";"397";"NULL"
;"67 avenue Jean Jaurès";"48.5676862";"7.7705967";"398";"92817"
;"67 avenue Jean Jaurès";"48.5676862";"7.7705967";"399";"NULL"
;"65 avenue Jean Jaurès";"48.5677657";"7.7703485";"400";"92817"
;"15 Avenue du Général de Gaulle";"48.5794693";"7.7700778";"402";"92817"
;"61 Boulevard Balzac";"48.5942749";"7.7031926";"403";"92817"
"Cour de Lucerne";"6 rue du Jeu de Paume";"48.5783784";"7.7575318";"404";"7672"
;"1 rue de Rothau";"48.5785029";"7.7307812";"405";"92817"
;"75 avenue de la Forêt Noire";"48.580887280926206";"7.776850461959839";"406";"29381"
;"5 Rue Jules Rathgeber";"48.565923";"7.7583598";"407";"75596"
;"4 Rue Jules Rathgeber";"48.56612130205586";"7.758219838142395";"408";"99174"
;"15 boulevard de Lyon";"48.5759984411246";"7.731805443763733";"409";"74659"
;"17 boulevard de Lyon";"48.57626640793043";"7.731510400772095";"410";"92820"
;"8 boulevard de Lyon";"48.5762527";"7.7319935";"411";"NULL"
"Hôtel Vendôme";"8 place de la Gare";"48.58408836287548";"7.736209847885107";"412";"92817"
"Hôtel Ibis";"12 place de la Gare";"48.5849196";"7.7363402";"413";"NULL"
;"14 place de la Gare";"48.585241588008394";"7.736636102199554";"414";"94474"
"Hôtel Mercure";"15 place de la Gare";"48.585376434235826";"7.736601233482361";"415";"94996"
"Banque Populaire";"5 Rue du Vingt-Deux Novembre";"48.583044963270254";"7.7420032024383545";"416";"92817"
"Cinéma Star Saint Exupéry";"18 Rue du Vingt-Deux Novembre";"48.58273977037357";"7.742475271224976";"417";"24369"
;"2 Petite rue du Vieux Marché aux Vins";"48.5839924690098";"7.741075158119202";"418";"63692"
;"2 boulevard de Lyon";"48.57558495313407";"7.733516693115234";"419";"111033"
;"8 Rue de Saales";"48.575022";"7.7335288";"420";"69288"
;"10 Rue de Saales";"48.57497625006746";"7.733358442783356";"421";"69288"
;"67 Allée de la Robertsau";"48.5914334976262";"7.768728733062744";"424";"87838"
;"2 rue Sedillot";"48.577047230258806";"7.7532899379730225";"425";"80139"
"Caisse d'épargne";"9 place Saint Thomas";"48.58014023292596";"7.745457887649536";"427";"77257"
"Eglise Saint Thomas (protestant)";"2 rue Martin Luther";"48.579659348206086";"7.745382785797119";"428";"77864"
;"26 rue Saint Urbain";"48.57084290917594";"7.761819362640381";"429";"111288"
;"20 rue Saint Urbain";"48.5711874";"7.7612257";"430";"110900"
;"67 rue Saint Urbain";"48.5696921";"7.7656639";"431";"92817"
;"62 rue Saint Urbain";"48.5696852";"7.7656912";"432";"92817"
;"60 rue Saint Urbain";"48.5697405";"7.7654724";"433";"NULL"
;"56 rue Saint Urbain";"48.5698522";"7.7650355";"434";"92817"
"Restaurant l'homme sauvage";"58 rue Saint Urbain";"48.5697958";"7.7652536";"435";"92817"
;"30 rue Saint Urbain";"48.570732871439134";"7.762168049812317";"436";"74923"
;"7 rue de Bouxwiller";"48.58922649709133";"7.741574048995972";"437";"79441"
;"2 rue du Chevreuil";"48.589161";"7.7441521";"438";"92817"
;"3 rue de Bouxwiller";"48.588955050658065";"7.742319703102112";"439";"108348"
;"14 rue de Bouxwiller";"48.58916972410172";"7.742346525192261";"440";"92817"
;"9 rue de Bouxwiller";"48.5892974632387";"7.741445302963257";"441";"92817"
;"5 rue de Bouxwiller";"48.589276173404954";"7.741820812225342";"442";"24568"
;"8 avenue Jean Jaurès";"48.571112678098125";"7.757216691970825";"443";"1198"
;"6 avenue Jean Jaurès";"48.5690597";"7.7654357";"444";"92817"
;"10 avenue Jean Jaurès";"48.571070083100835";"7.757420539855957";"445";"92817"
;"12 avenue Jean Jaurès";"48.5690597";"7.7654357";"446";"92817"
;"31 avenue Jean Jaurès";"48.5696039";"7.7640224";"448";"92817"
"Villa Haas";"9 rue des Sarcelles";"48.54472885709641";"7.7592068910598755";"450";"74591"
;"72 avenue des Vosges";"48.59082587244896";"7.747633159160614";"451";"48251"
;"52 avenue des Vosges";"48.590063891279534";"7.75036096572876";"452";"92817"
;"6 Rue du Général Rapp";"48.5901119";"7.7514158";"453";"92817"
;"5 Rue du Général Rapp";"48.59019162815616";"7.751219272613525";"454";"92817"
;"2 Rue du Général Rapp";"48.58985809229912";"7.75160551071167";"455";"80108"
;"7 rue de Soleure";"48.5776843013608";"7.7552613615989685";"456";"66632"
;"53 avenue des Vosges";"48.58980841655756";"7.749899625778198";"457";"92817"
;"54 Route du Polygone";"48.56859951186408";"7.757002115249634";"458";"92817"
;"27 Rue de la Première Armée";"48.57705432858828";"7.75209903717041";"459";"92817"
;"31 Rue de la Première Armée";"48.57660003349179";"7.752560377120972";"460";"10297"
"Hôtel de la Région Alsace";"1 rue du Wacken";"48.598940835573835";"7.760446071624756";"461";"NULL"
;"34 rue Bastian";"48.5972802";"7.7189375";"463";"92817"
;"36 rue Bastian";"48.597389";"7.7189898";"464";"92817"
;"32 rue Bastian";"48.5971714";"7.7188852";"465";"92817"
;"2 rue d' Avolsheim";"48.59706587955062";"7.722525000572205";"466";"104601"
;"16 rue Silbermann";"48.5882426";"7.7685973";"468";"15379"
;"6 rue Marivaux";"48.5980439";"7.7022097";"469";"92817"
;"32 Rue du Vieux Marché aux Vins";"48.584074";"7.74259";"471";"92817"
;"3 rue du Général de Gaulle";"48.5983612";"7.74047";"472";"92817"
"Impôt Strasbourg sud";"10 rue Simonis";"48.56447629982661";"7.758321762084961";"473";"92817"
;"9 rue du Héron";"48.5598934";"7.7627945";"474";"92817"
;"4 rue de la Charité";"48.5628586";"7.7589477";"475";"15439"
;"25 rue du Lazaret";"48.5630414";"7.7587263";"476";"92817"
;"24 rue du Lazaret";"48.56327070807978";"7.758990111639378";"477";"92817"
"Travaux au 20 décembre 2005";"12 rue Simonis";"48.5645021";"7.7587049";"478";"NULL"
;"14 rue Simonis";"48.563785";"7.7589667";"479";"92817"
;"16 rue Simonis";"48.56346223623906";"7.7589416895492604";"480";"99383"
"Sanofi Aventis";"16 rue d' Ankara";"48.57467633245035";"7.770702838897705";"481";"92817"
"Résidence Le Manet";"17 rue Jules Verne";"48.5954699";"7.7199241";"482";"92817"
;"7 rue des Bornes";"48.587910056986416";"7.7189040184021";"483";"92817"
;"3 Boulevard du Président Poincaré";"48.5902373";"7.7438375";"484";"92817"
;"3 rue Richard Brunck";"48.586458739607046";"7.784360647201538";"486";"21754"
;"66 rue Heidenberg";"48.59677851022564";"7.7210041880607605";"487";"92817"
;"17 quai Saint Nicolas";"48.5787859";"7.7496198";"488";"92817"
;"70 route de Mittelhausbergen";"48.593890535141114";"7.720918357372284";"489";"92817"
;"112 route de Mittelhausbergen";"48.5952935";"7.7178463";"490";"92817"
"Printemps";"1 rue de la Haute Montée";"48.58457090011134";"7.744460105895996";"491";"77334"
"Collège Louise Weiss";"80 avenue Jean Jaurès";"48.56754167290649";"7.769254446029663";"492";"79823"
;"24 rue Sleidan";"48.5857865";"7.7685539";"493";"92817"
"Démolition";"42 rue de saint Dié";"48.5687568";"7.7485659";"495";"NULL"
;"2 avenue des Vosges";"48.587800056395466";"7.7585577964782715";"496";"90618"
;"4 quai Zorn";"48.587919";"7.7592055";"497";"92817"
"Bureau de la banque CIAL (groupe CIC)";"14 rue de la Nuée Bleue";"48.585128033011514";"7.74760365486145";"498";"92817"
;"16 rue de la Nuée Bleue";"48.58497899169091";"7.747802138328552";"499";"61077"
;"7 avenue Jean Jaurès";"48.5708311";"7.7591101";"500";"NULL"
;"7 avenue Jean Jaurès";"48.5708311";"7.7591101";"501";"92817"
;"18 avenue Jean Jaurès";"48.5706453";"7.7590601";"502";"23521"
;"18 avenue Jean Jaurès";"48.5706453";"7.7590601";"503";"NULL"
;"13 Avenue de Strasbourg";"48.54633052819764";"7.738741636276245";"505";"55349"
"Gallia";"1 boulevard de la Victoire";"48.58441475985281";"7.759319543838501";"506";"85473"
"Ecole des Arts Décoratifs";"1 rue de l' Académie";"48.582413282909044";"7.758965492248535";"508";"53676"
;"12 rue des Pigeons";"48.5965608";"7.7172315";"509";"92817"
;"12 Avenue du Neuhof";"48.556376218009674";"7.766357660293579";"511";"92817"
;"40 Rue du Faubourg de Pierre";"48.5891642";"7.7453489";"513";"92707"
;"39 avenue Jean Jaurès";"48.56922426541837";"7.765402793884277";"514";"92817"
;"66 avenue Jean Jaurès";"48.5689008";"7.7649863";"515";"92817"
"Travaux au 1 mars 2006";"12 rue Simonis";"48.5645021";"7.7587049";"516";"NULL"
;"5 rue du Maire Kuss";"48.58365179483396";"7.737556099891663";"517";"92817"
"Citroen";"200 Avenue de Colmar";"48.557885207297474";"7.747281789779663";"519";"NULL"
;"120  Grand Rue";"48.5813518";"7.7446533";"521";"92817"
;"124  Grand Rue";"48.5812184";"7.745112";"522";"73091"
;"27 Rue des Grandes Arcades";"48.583226836067816";"7.747039049863815";"524";"95713"
;"46 Rue du Vieux Marché aux Vins";"48.584159256571056";"7.743668854236603";"525";"80554"
"Hôtel Aux Trois chasses Mouches";"3 Place de l' Hôpital";"48.57745183344886";"7.748976945877075";"526";"88453"
;"9 rue Des Greniers";"48.57761864259324";"7.741997838020325";"527";"1422"
"Animalerie";"1 Place de l' Hôpital";"48.57638708125999";"7.7447497844696045";"528";"110389"
"Histologie";"1 Place de l' Hôpital";"48.575109349031685";"7.739245891571045";"529";"NULL"
;"23 boulevard de Lyon";"48.5766757";"7.7315022";"531";"33827"
;"69 rue Heidenberg";"48.5965291";"7.7211937";"532";"92817"
;"80 rue Heidenberg";"48.5971803";"7.7197592";"533";"92817"
"Photos historique";"5 rue des Moulins";"48.5804036";"7.7420102";"534";"NULL"
;"6 rue d' Altorf";"48.569266";"7.7112886";"535";"1540"
"Faculté de médecine";"11 rue Humann";"48.57640837652353";"7.738966941833496";"537";"78579"
"Lycée Louis Pasteur";"24 rue Humann";"48.57540748944005";"7.737647294998169";"538";"92817"
;"38 avenue Jean Jaurès";"48.5699939";"7.761372";"539";"92817"
;"25 avenue Jean Jaurès";"48.56998034888532";"7.762747406959534";"540";"79172"
;"34 avenue Jean Jaurès";"48.570146";"7.7608607";"541";"92817"
"Villa Berthe";"34 rue de la Kurvau";"48.57003536860246";"7.765864133834839";"542";"92817"
"Aménagement de grenier";"22 rue de Bâle";"48.5678025";"7.764607";"543";"NULL"
"Grenier avant les travaux";"22 rue de Bâle";"48.5678025";"7.764607";"544";"NULL"
"Villa Osterloff";"10 rue des Arquebusiers";"48.5912727";"7.7602364";"545";"71907"
;"17 rue de l' Anneau";"48.59209877228715";"7.721996605396271";"546";"80831"
"Usine Junkers (ancienne)";"33 rue du Maréchal-Lefèbvre";"48.56142849225628";"7.739224433898926";"547";"92817"
;"2 rue Gallien";"48.57971968085734";"7.702472805976868";"548";"97176"
;"2 rue de l' Anneau";"48.592072161468906";"7.723270654678345";"549";"92817"
;"1 rue de l' Anneau";"48.59176";"7.7211988";"550";"92817"
;"7 Boulevard Gambetta";"48.59253518770695";"7.7589815855026245";"551";"92817"
;"9 rue des Arquebusiers";"48.5910165";"7.7598561";"552";"92817"
;"6 Rue du Haut Barr";"48.592783552522974";"7.756438851356506";"553";"92817"
;"35 Rue Oberlin J.F.";"48.5927392017525";"7.756902873516083";"555";"92817"
;"1 Boulevard Gambetta";"48.5923566";"7.7578845";"556";"NULL"
;"1 Boulevard Gambetta";"48.59247664439394";"7.758021354675293";"557";"39836"
;"3 Rue du Haut Barr";"48.592567120394556";"7.756189405918121";"558";"29749"
;"5 rue Charles Appell";"48.5930514303489";"7.7555108070373535";"559";"92817"
;"15 rue Charles Appell";"48.593161419508505";"7.756288647651672";"560";"92817"
;"55 boulevard Clémenceau";"48.59240568271148";"7.75622695684433";"561";"92817"
"Maison de retraite Bethesda";"12 rue des Arquebusiers";"48.59188765941019";"7.760220766067505";"562";"92817"
"Ancien locaux de la Région Alsace";"2 Boulevard Gambetta";"48.59213602740918";"7.756991386413574";"563";"89823"
;"37 Rue Oberlin J.F.";"48.59281548505361";"7.7570584416389465";"564";"41734"
;"3 Boulevard Gambetta";"48.59250502903901";"7.75858998298645";"565";"92817"
"Travaux au 2 juin 2006";"12 rue Simonis";"48.5645021";"7.7587049";"567";"NULL"
;"25 rue Simonis";"48.56363634004153";"7.759251101258087";"568";"92817"
;"11 place de l' Université";"48.58596549511573";"7.761738896369934";"569";"56949"
;"19 rue Erckmann Chatrian";"48.59005147239932";"7.7657487988471985";"571";"92817"
;"15 rue Erckmann Chatrian";"48.58984389923506";"7.7655476331710815";"572";"61075"
;"18 quai Rouget de Lisle";"48.59014195274251";"7.7651479840278625";"573";"61076"
;"19 rue Erckmann Chatrian";"48.5901676";"7.7661616";"574";"NULL"
;"2 quai Rouget de Lisle";"48.586886332554656";"7.76283860206604";"575";"92817"
;"3 Allée de la Robertsau";"48.5868100403022";"7.763439416885376";"576";"74547"
;"7 boulevard de la Dordogne";"48.59034420233561";"7.76659369468689";"578";"1737"
;"4 quai du Maire Dietrich";"48.586146470272396";"7.76183009147644";"579";"92817"
;"6 quai du Maire Dietrich";;;"580";"92817"
;"10 quai Rouget de Lisle";"48.5880381";"7.7639317";"581";"92817"
;"8 quai Rouget de Lisle";"48.5876409";"7.7636636";"582";"92817"
;"10 quai Jacques Sturm";"48.587356503196304";"7.7511656284332275";"583";"12390"
"Foyer de l'Etudiant Catholique (FEC)";"17 place Saint Etienne";"48.5830308";"7.7544601";"584";"57129"
;"15 rue Herder";"48.5886013";"7.7677026";"585";"92817"
;"17 rue Herder";"48.5886646";"7.7678001";"586";"92817"
"Consulat de suisse";"23 rue Herder";"48.5887969";"7.7679275";"587";"92817"
;"18 rue Herder";"48.5885936";"7.7677427";"588";"92817"
"Hôtel Rathsamhausen";"9 rue des Dentelles";"48.58119958275587";"7.74312436580658";"589";"109318"
;"11 rue du Parchemin";"48.5844401";"7.7537859";"590";"70656"
"Institut des hautes études européennes";"10 rue Schiller";"48.58990776799182";"7.764930725097656";"591";"87020"
"Villa Clem's";"9 rue Schiller";"48.58961680966845";"7.76458203792572";"592";"99047"
"RSI (anciennement retraite Organic)";"91 route des Romains";"48.57853785757886";"7.709934711456299";"593";"92817"
"Poste Broglie";"3 rue de la Fonderie";"48.58661487355082";"7.749470472335815";"594";"89852"
"Hôtel A la ville de Paris";"27 rue des Frères";"48.583044963270176";"7.753265798091888";"595";"74222"
;"8 rue du Renard Prechant";"48.5793684";"7.7575528";"596";"NULL"
"Paroisse Saint Urbain";"28 rue de Lièpvre";"48.56847881994699";"7.7690935134887695";"597";"92817"
"Palais des rohan";"2 place du Château";"48.58118538726002";"7.752152681350708";"598";"68816"
"La poste centrale";"5 avenue de la Marseillaise";"48.585692256886624";"7.756690979003906";"599";"98784"
;"30 rue de Dettwiller";"48.5957549";"7.7226481";"600";"92817"
;"13 rue de la Gare";"48.6116668";"7.7496564";"601";"92817"
;"7 quai du Général Koenig";"48.575521066275996";"7.757281064987183";"602";"91410"
;"125 rue Boecklin";"48.6043016";"7.7812705";"603";"92817"
;"8 rue Sainte Cécile";"48.5628614";"7.7553839";"604";"92817"
;"12 rue Sainte Cécile";"48.5627629";"7.7552661";"605";"92817"
;"21 Allée de la Robertsau";"48.58758715134573";"7.764286994934082";"606";"1850"
;"17 Place Kléber";"48.58355597980828";"7.74686336517334";"607";"NULL"
;"19 Place Kléber";"48.58346814920853";"7.746914327144623";"608";"NULL"
"Cave à Havanes";"21 Place Kléber";"48.58343177487501";"7.746938467025757";"609";"NULL"
;"2 Rue de la Râpe";"48.58142316128968";"7.752742767333984";"611";"94463"
"Hôtel Suisse";"4 Rue de la Râpe";"48.58149768724784";"7.752817869186401";"612";"46952"
;"107 route de Mittelhausbergen";;;"613";"92817"
;"46 rue de Benfeld";"48.5652169";"7.7662053";"614";"1908"
;"24 Quai des Pêcheurs";"48.5840472";"7.7587928";"615";"104648"
;"19 rue d' Erstein";"48.569195867696976";"7.755489349365234";"617";"107991"
;"10 Place Kléber";"48.58294559834342";"7.7450501918792725";"618";"76505"
;"23 place Broglie";"48.584400565259934";"7.748697996139526";"619";"56424"
"Banque BNP";"2 Rue du Dôme";"48.58410957522738";"7.749137878417969";"620";"92817"
;"67 route des Romains";"48.579098";"7.7129853";"621";"61223"
;"8 rue Bastian";"48.5955427";"7.7180754";"622";"92817"
;"79 Route du Polygone";"48.5670285";"7.7582385";"623";"92817"
;"155 route de Schirmeck";"48.569016";"7.7102999";"624";"92817"
;"78 boulevard Clémenceau";"48.5919158";"7.7541879";"625";"92817"
;"12 boulevard Clémenceau";"48.5908136";"7.7460651";"626";"92817"
;"21 rue de Dettwiller";"48.595546";"7.7244693";"628";"92817"
;"17 rue de Belfort";"48.57001407065456";"7.748346626758575";"629";"92817"
;"36 rue de Lautherbourg";"48.6092405";"7.7445497";"630";"92817"
;"11 rue de Lautherbourg";"48.6089926";"7.7467496";"631";"92817"
"Paroisse Saint Arbogast";"8 rue des Mérovingiens";"48.572301773956454";"7.718845009803772";"632";"92817"
"Consistoire Israelite du Bas-Rhin";"23 rue Sellénick";"48.591007717246264";"7.7527642250061035";"633";"92817"
;"4 Rue du Haut Barr";"48.59269396392653";"7.756452262401581";"634";"68013"
;"13 rue de la Ziegelau";"48.56384616247741";"7.7650004625320435";"635";"92817"
;"19 rue de la Ziegelau";"48.5639964";"7.7655706";"636";"92817"
;"18 rue Fischart";"48.586373575434415";"7.766011655330658";"637";"64679"
"Archive départementale";"9 rue Fischart";"48.58631679923959";"7.765488624572754";"638";"NULL"
;"35 rue de Rathsamhausen";"48.5669994";"7.7610524";"639";"92817"
;"22 rue de Rathsamhausen";"48.56776886166258";"7.761390209197998";"640";"NULL"
;"18 rue de Rathsamhausen";"48.56807414494637";"7.761476039886475";"641";"92817"
;"30 Place Kléber";"48.583767127494355";"7.745082378387451";"642";"92817"
"Encendie";"55 rue de Hochfelden";"48.5955142";"7.7277776";"643";"NULL"
;"16 rue de Dettwiller";"48.5955716";"7.7242233";"644";"78235"
"Intérieur de 1928";"31 Place Kléber";"48.5838295";"7.746151";"645";"NULL"
;"3 rue Moll";"48.5858419";"7.7376925";"646";"92817"
;"1 rue Moll";"48.585725";"7.7385543";"647";"6851"
;"1 rue Moll";"48.585725";"7.7385543";"648";"NULL"
;"2 rue Moll";"48.5859169";"7.7376431";"650";"94509"
;"26 rue Kageneck";"48.5858396";"7.7387999";"651";"92817"
;"9 rue du Marais Kageneck";"48.5861511";"7.738448";"652";"16399"
"Mairie des quartiers Gare-Tribunal-Cathédrale";"33 rue Kageneck";"48.58624937742539";"7.738720178604126";"653";"4031"
;"21 rue du Marais Kageneck";"48.5865865";"7.7385734";"654";"92817"
;"13 rue du Marais Kageneck";"48.5863959";"7.7385185";"655";"92817"
;"15 rue du Marais Kageneck";"48.5865183";"7.7385538";"656";"92817"
;"11 rue du Marais Kageneck";"48.5862735";"7.7384833";"657";"92817"
;"1 rue de Dalhain";"48.5943099";"7.7237786";"658";"2010"
"Villa Wallaram";"10 Avenue d' Alsace";"48.58684197660795";"7.760639190673828";"659";"104595"
"Musée historique";"3 Place de la Grande Boucherie";"48.5800043";"7.7505636";"660";"92817"
"Lycee Professionnel et C.F.A Oberlin";"4 rue de l' Académie";"48.58146929641959";"7.760059833526611";"661";"108705"
;"9 quai Mullenheim";"48.58777876593087";"7.762237787246704";"662";"72771"
"Consulat général d'Allemagne";"6 quai Mullenheim";"48.58752505387059";"7.762031257152557";"663";"92817"
;"18 rue du Lazaret";"48.5630474";"7.7595045";"664";"93800"
"Consulat des Etats Unies";"15 Avenue d' Alsace";"48.58712585399416";"7.761411666870117";"665";"91435"
;"16 rue des Foulons";"48.5737933";"7.7285797";"666";"92817"
;"27 avenue Jean Jaurès";"48.56991290527944";"7.7630531787872314";"668";"88819"
"Villa Florentine";"29 avenue Jean Jaurès";"48.56982771322764";"7.763482332229614";"669";"88811"
;"23 avenue Jean Jaurès";"48.570182679163295";"7.762066125869751";"670";"92817"
;"23 avenue Jean Jaurès";"48.5699511";"7.7622311";"671";"NULL"
;"97 route des Romains";"48.5784308";"7.7082811";"672";"92817"
"Synagogue de la paix";"16 avenue de la Paix";"48.58962035795077";"7.755870223045349";"674";"47489"
;"1 avenue de la Paix";"48.588829084824404";"7.754791975021362";"675";"70056"
;"64 rue du Lazaret";"48.564115968726064";"7.754019498825073";"677";"2122"
;"62 rue du Lazaret";"48.564119518798705";"7.754207253456116";"678";"2124"
;"53 rue du Lazaret";"48.5631257";"7.7577041";"679";"2126"
;"57 rue du Lazaret";"48.5640055";"7.7546746";"680";"92817"
;"101  Grand Rue";"48.5813983192792";"7.7448248863220215";"681";"88571"
;"3 rue de la Grossau";"48.5657638";"7.7627786";"682";"NULL"
;"32 avenue Aristide Briand";"48.5686518";"7.776985";"683";"92817"
"Villa Roesch";"2 avenue Léon Dacheux";"48.5640208";"7.7558567";"684";"81478"
"Travaux d'extension";"2 Place Saint Florent";"48.5962837";"7.7216369";"687";"NULL"
;"34 rue de Rosenwiller";"48.5964355";"7.722828";"688";"92817"
;"1 rue de Saint Leonard";"48.5964173";"7.7235819";"690";"92817"
;"21 rue Schwendi";"48.5905764";"7.7523788";"691";"92817"
"Eglise Saint Aloïse";"2 Place Saint Aloïse";"48.56431122235042";"7.761647701263428";"692";"92817"
"Brasserie du Loup";"69 Rue du Faubourg de Pierre";"48.590099373777654";"7.744588851928711";"694";"80567"
"Tour Schwab";"42 rue de l' Ill";"48.6135904";"7.7734561";"696";"47972"
"Paroisses Catholiques Saint Aloïse";"127 Route du Polygone";"48.56385326266031";"7.761433124542236";"698";"92817"
"Ancien Hôtel d'Angleterre";"5 Quai de Paris";"48.58467203615775";"7.74248868227005";"699";"100062"
"Ecole Sainte Madeleine";"2 Place Sainte-Madeleine";"48.580113615810134";"7.754223346710205";"700";"76140"
"Eglise Sainte Madeleine";"12 Place Sainte-Madeleine";"48.58006393048979";"7.7547383308410644";"701";"68149"
"Lycée internationale des pontonniers";"3 rue des Pontonniers";"48.58429410568628";"7.756741940975189";"702";"10418"
;"2 Quai de Paris";"48.58430652598142";"7.741630375385284";"703";"92817"
;"3 Quai de Paris";"48.58435265847954";"7.741799354553223";"704";"92817"
"Hôtel de Neuwiller (ancien)";"4 Quai de Paris";"48.58452476781245";"7.742164134979248";"706";"86488"
"Villa Schützenberger";"76 Allée de la Robertsau";"48.5918496";"7.7695983";"707";"108822"
"Ancienne brasserie Löwenbräu";"47 Rue des Grandes Arcades";"48.5825436";"7.7473766";"708";"69605"
"Poste de Neudorf";"87 Route du Polygone";"48.566522860777475";"7.758863568305969";"709";"2217"
"Eglise Saint Sauveur";"6 rue Jacob";"48.59447772280687";"7.716726064682007";"710";"92817"
;"9 rue Jacob";"48.5941394";"7.7174409";"711";"92817"
"Presbytère de l'église saint sauveur";"6 rue Jacob";"48.59474026976678";"7.7170586585998535";"712";"92817"
"Siège de la CTS (compagnie des transports Strasbourgeois)";"14 rue de la Gare aux marchandises";"48.59264695202524";"7.7334630489349365";"713";"92817"
"Rénovation compléte d'un logement";"4 Rue du Haut Barr";"48.5924128";"7.7563174";"714";"NULL"
;"15 Rue du Vieux Marché aux Vins";"48.5837584";"7.7414304";"715";"92817"
"Hôtel de France";"20 rue du Jeu des enfants";"48.58337676973563";"7.741855680942535";"716";"92817"
;"14 boulevard de Lyon";"48.5764828";"7.7318663";"717";"92817"
;"12 boulevard de Lyon";"48.5767776";"7.7317712";"718";"92817"
;"16 boulevard de Lyon";"48.5772432";"7.7316234";"719";"92817"
;"38 boulevard de Lyon";"48.5791171";"7.7310212";"720";"23416"
;"36 boulevard de Lyon";"48.5789719";"7.7310667";"721";"98217"
;"15 avenue de la Liberté";"48.58632389626743";"7.7579569816589355";"723";"92817"
"Direction des douanes";"11 avenue de la Liberté";"48.58643212581851";"7.757690101861954";"724";"92817"
"Centre de diététique &amp; d'amincissement Ermelinda Bardin";"132 Avenue de Colmar";"48.56508512930106";"7.751911282539368";"725";"92817"
;"21 avenue de la Liberté";"48.586089693822416";"7.758654356002808";"727";"92817"
"Hôtel d'Andlau - siège du port autonome de Strasbourg";"25 rue de la Nuée Bleue";"48.584943505597415";"7.748215198516846";"728";"64786"
;"12 rue de l' Outre";"48.583758";"7.7476714";"729";"46037"
"Cimetière saint urbain";"1 Route du Polygone";"48.57191487717911";"7.757141590118408";"730";"92817"
"Usine Suchard";"140 Avenue de Colmar";"48.56299768344708";"7.752270698547363";"731";"NULL"
;"23 rue de la Nuée Bleue";"48.58505351240615";"7.748022079467773";"732";"57693"
;"4 rue de Châteauroux";"48.554297";"7.7667662";"736";"92817"
;"43 rue du Markstein";"48.571146399112216";"7.765928506851196";"737";"92817"
"Au bon coin";"41 Avenue du Neuhof";"48.5544013";"7.766391";"739";"92817"
;"7 Rue du Haut Barr";"48.59289442927883";"7.756137102842331";"740";"28793"
;"1 boulevard de Nancy";"48.57974984715596";"7.730638682842255";"742";"2529"
;"41 boulevard de Nancy";"48.58209743976799";"7.7321165800094604";"743";"53815"
"Extension du parking Saint aurélie";"41 boulevard de Nancy";"48.5820418";"7.7323663";"744";"NULL"
;"8 Rue du Haut Barr";"48.59292902277685";"7.756406664848328";"745";"92817"
;"36 rue Saint Erhard";"48.5663198";"7.7535869";"746";"92817"
;"21 rue Saint Erhard";"48.566609";"7.7533401";"747";"92817"
;"38 rue de Mulhouse";"48.5671164";"7.7527844";"748";"90970"
;"38 rue de Mulhouse";"48.56725058582115";"7.752836644649506";"749";"92817"
;"13 rue Charles Appell";"48.59309755486434";"7.756122350692749";"751";"92817"
;"7 rue Charles Appell";"48.59306562251199";"7.7556851506233215";"752";"92817"
;"2 rue de Rome";"48.57716790172453";"7.7650487422943115";"755";"92817"
"Paroisses Catholiques";"4 rue de Palerme";"48.57736665409901";"7.764061689376831";"756";"92528"
;"4 rue Narion";"48.5786345";"7.7195067";"757";"92817"
;"32 boulevard d' Anvers";"48.58550063439015";"7.772035896778107";"758";"92817"
"Chapelle Sainte Barbe";"29 Rue du Faubourg National";"48.58221100157404";"7.735351324081421";"759";"72079"
;"29 Route du Polygone";"48.570092";"7.7565962";"760";"92817"
;"31 Route du Polygone";"48.5699823";"7.7566298";"761";"92817"
;"25 Route du Polygone";"48.5703114";"7.7565292";"762";"92817"
;"5 rue du Général de Castelnau";"48.588644570923776";"7.749706506729126";"763";"92817"
;"7 rue des Pigeons";"48.5963803";"7.7171288";"765";"92817"
;"9 rue des Pigeons";"48.5964958";"7.7171945";"766";"92817"
;"21 rue des Pigeons";"48.5971818";"7.7175849";"767";"92817"
"Brasserie Kronenbourg";"68 route d' Oberhausbergen";"48.59310819897731";"7.715116739273071";"768";"70590"
"Foyer du jeune homme";"42 avenue Jean Jaurès";"48.56971057392204";"7.762017846107483";"769";"92817"
;"31 route de Bischwiller";"48.6030163";"7.7462043";"770";"NULL"
;"92 avenue Jean Jaurès";"48.5669283";"7.7729712";"771";"62240"
"Médiathéque de Neudorf";"3 place du Marché";"48.566547710097986";"7.760263681411743";"772";"78870"
;"36 rue de Benfeld";"48.5657667";"7.7654028";"774";"4526"
;"30 rue de Rathsamhausen";"48.5672788";"7.7612926";"775";"92817"
"Démolition d'un bel ensemble";"10 rue Déserte";"48.5834402";"7.7358151";"776";"92817"
;"4 rue Déserte";"48.5837049";"7.7373433";"777";"92817"
;"6 rue Déserte";"48.58375825576059";"7.737035751342773";"778";"92817"
;"10 rue Déserte";"48.5834402";"7.7358151";"779";"92817"
;"10 place de Haguenau";"48.5911521";"7.7436705";"781";"NULL"
;"55 Allée de la Robertsau";"48.590244851759465";"7.767401039600372";"782";"2559"
"Consulat de Belgique";"41 Allée de la Robertsau";"48.58922472293638";"7.766167223453522";"783";"65761"
;"40 Rue Jacques Kablé";"48.59322705808646";"7.753281891345978";"784";"92817"
;"60 avenue des Vosges";"48.59028388236625";"7.749513387680054";"785";"2567"
;"30 avenue des Vosges";"48.589247786946025";"7.753332853317261";"786";"92817"
;"10 Boulevard du Président Poincaré";"48.59046306794686";"7.743521332740784";"787";"92817"
;"62 avenue des Vosges";"48.59036194348936";"7.749298810958862";"790";"58051"
;"2 rue de Haguenau";"48.59078063290993";"7.744696140289307";"791";"92817"
;"4 rue de Haguenau";"48.59090836797469";"7.744535207748413";"792";"92817"
;"6 rue de Haguenau";"48.5909195";"7.7442531";"793";"92817"
;"80 avenue des Vosges";"48.59129866756074";"7.745951414108276";"794";"97090"
;"82 avenue des Vosges";"48.591369630797935";"7.745683193206787";"795";"92817"
"Villa Brunner";"61 avenue des Vosges";"48.5896006";"7.7512911";"796";"2588"
;"63 avenue des Vosges";"48.59014904923316";"7.748762369155884";"797";"92817"
;"40 Allée de la Robertsau";"48.5891555";"7.7667085";"798";"92817"
;"36 Allée de la Robertsau";"48.5889393";"7.7664435";"799";"92817"
;"34 Allée de la Robertsau";"48.5893091";"7.766602";"800";"92817"
;"53 avenue des Vosges";"48.58999";"7.7499152";"801";"NULL"
;"51 avenue des Vosges";"48.589765837311646";"7.750082015991211";"802";"92817"
;"84 avenue des Vosges";"48.59146188285728";"7.745361328125";"803";"107331"
;"86 avenue des Vosges";"48.59156123104055";"7.744932174682617";"804";"2619"
;"1 rue Sellénick";"48.59053935468436";"7.748665809631348";"805";"69500"
;"10 avenue des Vosges";"48.58809102517952";"7.757377624511719";"806";"2628"
;"1 Avenue d' Alsace";"48.587558763938006";"7.759319543838501";"807";"92817"
;"17 rue Schweighaeuser";"48.587143596277855";"7.765477895736694";"808";"92817"
"Office de tourisme place de la cathédrale";"17 Place de la Cathédrale";"48.58205840283824";"7.749899625778198";"809";"88123"
"Café de la chaine d'or";"11 rue de la Chaîne";"48.58112150747934";"7.745994329452515";"810";"22636"
;"20 rue des Champs";"48.5952854";"7.723549";"811";"92817"
;"29 rue des Ormes";"48.5970086";"7.7199228";"812";"2647"
;"27 rue des Ormes";"48.5968526";"7.7198555";"813";"2650"
;"12 rue de l' Académie";"48.5815641";"7.7612024";"814";"106566"
"Stade de la Meinau";"12 rue Extenwoerth";"48.56010777777933";"7.755124568939209";"816";"85805"
;"1 place de l' Homme de fer";"48.58425152179401";"7.744921445846558";"817";"70850"
"UGC Ciné Cité";"25 Avenue du Rhin";"48.573086206960014";"7.763353586196899";"818";"92817"
;"13 rue Martin Bucer";"48.58135750737834";"7.733666896820068";"819";"81503"
;"8 rue Martin Bucer";"48.581589";"7.7340362";"820";"92817"
;"25 Boulevard du Président Wilson";"48.58951036108277";"7.7404046058654785";"821";"92817"
"Jardin Botanique";"28 rue Goethe";"48.583421128723685";"7.7667224407196045";"822";"82797"
"Serre contemporaine du jardin botanique";"28 rue Goethe";"48.5841416";"7.7678447";"823";"NULL"
"Ancienne serre";"28 rue Goethe";"48.5841416";"7.7678447";"824";"NULL"
"Observatoire astronomique";"11 rue de l' Université";"48.58334305687867";"7.767913341522217";"825";"98016"
;"31 rue Goethe";"48.584656067321774";"7.766464948654175";"826";"2712"
"Faculté des Sciences de la Vie";"28 rue Goethe";"48.58418409722458";"7.76658833026886";"827";"83918"
;"80 rue de la Ziegelau";"48.56606227685057";"7.769586830688468";"828";"53697"
;"11 Place du Temple-Neuf";"48.5831172";"7.747612600000025";"829";"92817"
"Eglise Saint Antoine";"15 rue d' Hurtigheim";"48.59753595547789";"7.710106372833252";"830";"92817"
;"136 route de Mittelhausbergen";"48.59675190187211";"7.716066241264343";"831";"2729"
;"14 rue des Pigeons";"48.5966907";"7.7173054";"832";"92817"
;"22 rue des Pigeons";"48.5970599";"7.7175155";"833";"92817"
"Rénovation";"6 rue du Jeu de Paume";"48.5783784";"7.7575318";"835";"NULL"
;"7 rue Silbermann";"48.5885618";"7.7679654";"836";"2761"
;"6 rue Silbermann";"48.5889366";"7.7672868";"837";"2765"
"Immeuble neuf";"4 rue du Chevreuil";"48.5892208";"7.7444619";"838";"NULL"
;"5 rue des Mineurs";"48.5875008";"7.744468";"839";"1049"
;"88 boulevard Clémenceau";"48.591908948143676";"7.755317687988281";"840";"81419"
;"25 Rue du Faubourg de Pierre";"48.58800054116396";"7.745828032493591";"841";"23586"
;"29 Rue du Faubourg de Pierre";"48.5881605";"7.7457469";"842";"92817"
;"65 rue de la Ziegelau";"48.56631519097861";"7.769621908664703";"844";"92817"
;"63 rue de la Ziegelau";"48.56628324170309";"7.769348323345184";"845";"92817"
;"8 boulevard de Nancy";"48.5805227";"7.7316046";"846";"92817"
;"8 boulevard de Nancy";"48.5805227";"7.7316046";"847";"NULL"
"Rhéabilitation d'un ancien cinéma";"3 Rue du Vingt-Deux Novembre";"48.58298108583972";"7.741423845291138";"848";"88772"
"Ancienne brasserie Schutzenberger";"4 rue du Port du Rhin";"48.576963";"7.786709";"849";"92817"
;"51 rue de la Ziegelau";"48.5657203";"7.7684938";"851";"92817"
;"23 rue Déserte";"48.583339";"7.7347018";"852";"92817"
;"25 rue Déserte";"48.58326675927725";"7.734554708003998";"853";"68287"
;"42 Rue Jacques Kablé";"48.5933727";"7.7538592";"854";"101861"
"Ancien siège de la DDE du bas rhin";"42 Rue Jacques Kablé";"48.59327673046714";"7.753925621509552";"855";"101857"
"Musée d'art moderne et contemporain de Strasbourg";"1 place Hans Jean Arp";"48.57950319277433";"7.735995054244995";"857";"75027"
;"4 quai Saint Thomas";"48.5788849";"7.747294";"858";"92817"
;"46 route de l' Hôpital";"48.57054474185061";"7.750704288482666";"860";"78788"
;"70 route de l' Hôpital";"48.5686349";"7.751418";"861";"92817"
;"72 route de l' Hôpital";"48.5683794263872";"7.751294374465942";"862";"17560"
"Moulin de la chartreuse";"1 rue de la Chartreuse";"48.57683782909055";"7.705535888671875";"863";"80793"
;"56 route de l' Hôpital";"48.5698732";"7.7510855";"864";"2910"
;"2 rue de la Chartreuse";"48.57653614791645";"7.7066463232040405";"865";"92817"
;"3 rue de la Chartreuse";"48.57667811575204";"7.706930637359619";"866";"92817"
;"117 route des Romains";"48.577175";"7.706051";"867";"92817"
;"2 rue de la Chartreuse";"48.57667101736972";"7.706705331802368";"868";"92817"
;"33 rue de l' Anneau";"48.5920526";"7.7228811";"869";"92817"
;"17 route des Romains";"48.5801475";"7.7196581";"871";"NULL"
;"5 rue de Soultz";"48.5682691";"7.7776565";"872";"92817"
;"34 Rue Oberlin J.F.";"48.5915013";"7.7550444";"873";"NULL"
;"38 Rue Oberlin J.F.";"48.59183127006308";"7.755745063229369";"874";"92950"
;"36 Rue Oberlin J.F.";"48.59173154175737";"7.755567133426666";"875";"90699"
;"30 Rue Oberlin J.F.";"48.5912917";"7.754684";"876";"90554"
;"203 Avenue de Colmar";"48.5576961";"7.7482428";"877";"NULL"
"Le Grand Pavois";"10 boulevard Paul Déroulède";"48.5924694";"7.7682059";"878";"46923"
;"28 Rue Oberlin J.F.";"48.5911147";"7.7544298";"879";"92817"
"Ancien Pfälzer Haus, cercle d'étudiant";"6 rue Pierre Bucher";"48.58503399508659";"7.755604684352875";"881";"70527"
;"6 rue du Général Gouraud";"48.5869338";"7.7564746";"883";"81298"
;"31 Rue Oberlin J.F.";"48.59250502903901";"7.756438851356506";"884";"110104"
;"11 rue de Mulhouse";"48.568396";"7.756073";"886";"28798"
;"5 rue de Mulhouse";"48.5685668";"7.7566608";"887";"3002"
;"16 rue de la Charmille";"48.5816922";"7.7187971";"888";"3010"
"Pharmacie de la charmille";"16 rue de la Charmille";"48.5816922";"7.7187971";"889";"92817"
;"1 rue Charles Appell";"48.592966277286685";"7.755070924758911";"891";"92817"
;"24 rue ehrmann";"48.5929971";"7.754858";"892";"92817"
;"23 rue ehrmann";"48.5932156";"7.7547945";"893";"86039"
;"5 rue de Drulingen";"48.590186305792756";"7.74786114692688";"894";"77939"
;"2 boulevard de la Dordogne";"48.59044532682859";"7.765445709228516";"895";"61023"
;"3 boulevard de la Dordogne";"48.5905542";"7.765959";"896";"92817"
;"7 Boulevard du Président Wilson";"48.5879691";"7.7389058";"897";"92817"
"Pole europeen de gestion";"61 avenue de la Forêt Noire";"48.5828746232761";"7.7731382846832275";"898";"92817"
;"22 avenue de la Paix";"48.5916688";"7.757055";"899";"92817"
;"26 avenue de la Paix";"48.59215731603799";"7.7574098110198975";"900";"92817"
"Direction Départementale de l'Equipement (DDE)";"2 route d' Oberhausbergen";"48.5906954760207";"7.727830410003662";"901";"92817"
"ancien Hôtel Leitersbergen";"2 place de l' Homme de fer";"48.5840426";"7.744918";"902";"3101"
;"7 quai Desaix de Veygoux";"48.58349210302358";"7.739943265914917";"903";"71753"
"Parc de la citadelle";"1 place  3e Regiment Tir Algeriens";"48.57617412813116";"7.774672508239746";"904";"92234"
;"38 rue de l' Université";"48.58255523423971";"7.767140865325928";"905";"92817"
;"125 route de Mittelhausbergen";"48.59585253128086";"7.716704607009888";"906";"63757"
;"3 Boulevard du Président Wilson";"48.58610388794089";"7.736477851867676";"907";"92817"
"Villa Stempel (Ancienne)";"4 rue Erckmann Chatrian";"48.58886811652474";"7.764962911605835";"908";"99839"
;"6 rue Erckmann Chatrian";"48.5896328";"7.7655685";"909";"92817"
"Consulat du Maroc";"7 rue Erckmann Chatrian";"48.58929036662844";"7.764791250228882";"910";"93368"
"Villa Offermann (ancienne)";"14 quai Rouget de Lisle";"48.588985211444864";"7.764305770397186";"911";"71610"
"Notre Dame de Sion (primaire)";"2 rue Erckmann Chatrian";"48.58864989344957";"7.7643755078315735";"912";"85224"
;"19 quai Rouget de Lisle";"48.59030517177544";"7.765268683433533";"913";"108956"
;"20 quai Mullenheim";"48.5896522924805";"7.76322215795517";"914";"91153"
"Ancien grenier à grain";"6 place du Petit Broglie";"48.58545095436505";"7.752420902252197";"915";"92817"
;"6 rue de Ribeauvillé";"48.56155985175693";"7.764866352081299";"916";"92817"
;"8 rue du Faucon";"48.5961709";"7.7187611";"919";"92817"
"Lycée Kleber";"25 place de Bordeaux";"48.594406763934856";"7.756948471069336";"921";"92817"
"Ancien siège du Medef";"1 quai Jacques Sturm";"48.587608441891064";"7.749062776565552";"922";"97219"
;"21 rue de la Ménagerie";"48.5687018";"7.7709903";"923";"92817"
;"26 rue de la Ménagerie";"48.56906807775343";"7.770230770111084";"924";"92817"
;"12 rue de la Ménagerie";"48.5682447";"7.7721431";"925";"3243"
"Ecole primaire de la Musau (Annexe)";"27 rue de la Ménagerie";"48.56886219327619";"7.769790887832642";"926";"92817"
"Banque HSBC Place Gutenberg";"11 place Gutenberg";"48.58136637953349";"7.747965753078461";"927";"92817"
;"37 rue Schweighaeuser";"48.58815489615177";"7.768455147743225";"932";"65545"
;"42 rue Schweighaeuser";"48.58790473438268";"7.768642902374268";"933";"92817"
"Pharmacie de l'Homme de fer";"2 place de l' Homme de fer";"48.5840426";"7.744918";"934";"NULL"
"UFR de Physiques";"3 rue de l' Université";"48.58377599922657";"7.764179706573486";"935";"70750"
;"1 rue Maréchal Joffre";"48.58770779765072";"7.755725383758545";"936";"92817"
;"1 rue Grandidier";"48.58406344250738";"7.761610150337219";"937";"92817"
;"7 rue de l' Université";"48.58357017463838";"7.7651238441467285";"939";"68324"
"Musée de sismologie";"9 rue de l' Université";"48.583953433543634";"7.765713930130005";"940";"92817"
;"1 Place de l' Hôpital";"48.57698334524856";"7.748826742172241";"941";"88443"
;"3 rue de l' Université";"48.5846123";"7.7600217";"942";"NULL"
;"10 rue Goethe";"48.58467735910195";"7.764716148376465";"943";"92817"
;"33 rue Saint Erhard";"48.5659811";"7.7539593";"944";"89123"
;"7 rue du Sundgau";"48.5663804";"7.7543658";"945";"89123"
;"7 rue du Sundgau";"48.5663804";"7.7543658";"946";"NULL"
;"32 rue du Sundgau";"48.5663139";"7.7541831";"947";"92817"
"Ensemble immobilier 7, 7a, 7b et 33 rue Saint Erhard";"7 rue du Sundgau";"48.5663804";"7.7543658";"948";"NULL"
;"27 rue de la Charmille";"48.5820037";"7.7187716";"949";"67669"
"Ancienne Faculté de Médecine";"8 Place de l' Hôpital";"48.577537012655185";"7.749835252761841";"950";"71294"
;"74 Route du Polygone";"48.567184";"7.7581395";"952";"92817"
;"1 rue de Thann";"48.56733578221468";"7.758461236953735";"953";"54287"
;"14 rue Charles Grad";"48.59326786040273";"7.762361168861389";"955";"69885"
;"16 rue Edouard Teutsch";"48.5937404";"7.7611025";"956";"92817"
;"54 Avenue de Colmar";"48.5705553";"7.7546491";"957";"92817"
;"2 rue de Nomeny";"48.5708444";"7.7548992";"960";"92817"
;"21 Avenue du Neuhof";"48.55622354129202";"7.76684045791626";"961";"86565"
;"13 quai Saint Nicolas";"48.57865142738219";"7.749253213405609";"962";"92817"
;"12 rue de Saint Dié";"48.5701828";"7.7457006";"963";"92817"
;"271 Avenue de Colmar";"48.5534679";"7.7447024";"965";"NULL"
;"18 rue Sleidan";"48.58586258738469";"7.767966985702515";"967";"86261"
;"6 rue de Nomeny";"48.57083580997433";"7.755529582500458";"968";"92817"
;"1 rue du Grand Couronné";"48.5708519";"7.7539732";"969";"NULL"
;"12 rue des Petites Fermes";"48.58105762761795";"7.718238830566406";"970";"92817"
;"16 rue des Petites Fermes";"48.5808901";"7.7177059";"971";"92817"
;"8 rue des Petites Fermes";"48.58029461192132";"7.713480591773987";"972";"92817"
;"18 rue des Petites Fermes";"48.5808615";"7.717528";"973";"92817"
"Cour de Mutzig";"5 rue de Mutzig";"48.5802243";"7.7324636";"974";"86052"
;"4 rue de Mutzig";"48.5804244";"7.7326955";"975";"3426"
;"2 rue des Ducs";"48.590532258248516";"7.715320587158203";"976";"92817"
;"32 rue Herder";"48.58955294054395";"7.768932580947876";"977";"87341"
;"29 rue Herder";"48.58952278009599";"7.768535614013672";"978";"92817"
;"27 rue Herder";"48.5892972";"7.7684988";"979";"92817"
;"18 quai Schoepflin";"48.58661487355082";"7.7513587474823";"980";"92817"
;"6 rue du Général Frère";"48.58892843818414";"7.752549648284912";"981";"92817"
"Crèche Stenger Bachmann";"2 rue de la Douane";"48.57917845891141";"7.749076187610626";"982";"92817"
"Rivétoile";"1 Avenue du Rhin";"48.57355473127449";"7.757828235626221";"983";"92817"
;"165 route des Romains";"48.5783865";"7.7008342";"986";"49912"
"Hôtel Bristol";"4 place de la Gare";"48.5839664";"7.7356627";"987";"92817"
;"78 avenue des Vosges";"48.5912206078847";"7.746155261993408";"988";"92817"
;"26 rue Finkmatt";"48.5907165";"7.7466648";"989";"92817"
"Ancien Palace Automobile";"23 rue Finkmatt";"48.5905711";"7.7467538";"992";"61169"
;"8 rue Charles Appell";"48.592861609784435";"7.755937278270721";"993";"76336"
"C.I.A.R.U.S";"7 rue Finkmatt";"48.58935423608481";"7.747501730918884";"994";"92817"
;"21 rue Finkmatt";"48.5904263";"7.7468451";"995";"74014"
;"27 rue Finkmatt";"48.5908623";"7.7465771";"996";"3551"
;"27 avenue de la Paix";"48.59126318590476";"7.756326198577881";"997";"92817"
;"14 quai Saint Nicolas";"48.578681594318304";"7.7493444085121155";"998";"92817"
;"18 quai Saint Nicolas";"48.57883420324869";"7.749980092048645";"999";"65475"
;"16 quai Saint Nicolas";"48.578709986712326";"7.749499976634979";"1000";"89401"
;"15 quai Saint Nicolas";"48.578706437663946";"7.7494195103645325";"1001";"84012"
;"57 avenue des Vosges";"48.59000002272013";"7.749234437942505";"1003";"3580"
;"8 rue du Fossé-des-Treize";"48.5890148";"7.7468455";"1004";"66605"
"Tour de Chimie";"1 rue Blaise Pascal";"48.580667248932876";"7.767677307128906";"1005";"92817"
;"6 avenue de la Paix";"48.58902779134857";"7.755441069602966";"1007";"71379"
;"2 rue Grandidier";"48.584100703553744";"7.760998606681824";"1009";"72448"
;"55 avenue Jean Jaurès";"48.5683864";"7.7678124";"1011";"NULL"
"Ecole de la Musau";"78 avenue Jean Jaurès";"48.568322629979605";"7.766990661621094";"1012";"79818"
"Ecode du Neufeld";"1 rue du Sundgau";"48.5666205";"7.755264";"1013";"78920"
;"3 rue de Bourtzwiller";"48.5675686";"7.7585282";"1014";"3600"
;"3 rue de la Brigade Alsace-Lorraine";"48.5772894";"7.7534335";"1015";"92817"
;"1 rue de la Brigade Alsace-Lorraine";"48.5775069";"7.7533829";"1016";"89311"
;"12 rue des Moulins";"48.580482705232484";"7.741756439208984";"1017";"93163"
;"1 rue de Sarrebourg";"48.6081628";"7.7478575";"1018";"107288"
;"10 rue Baldner";"48.569145";"7.7581287";"1019";"3636"
;"38 rue Baldner";"48.5685465";"7.7604313";"1020";"92817"
;"38 rue Baldner";"48.5685465";"7.7604313";"1021";"NULL"
;"31 rue Baldner";"48.5684082";"7.7599203";"1022";"92817"
;"12 rue Baldner";"48.5690278";"7.7583482";"1023";"3635"
;"2 rue de Rathsamhausen";"48.5694524";"7.7629847";"1024";"21878"
;"2 rue de Bitche";"48.590965139010926";"7.753534018993378";"1025";"92817"
"Institut National des Sciences Appliquées (INSA)";"24 boulevard de la Victoire";"48.5822462";"7.7654286";"1027";"81967"
;"18 rue Baldner";"48.5687989";"7.7588337";"1028";"92817"
;"16 rue Baldner";"48.5688644";"7.7587064";"1029";"92817"
"Parking Printemps";"2 Quai Kellermann";"48.58552192581451";"7.744427919387817";"1031";"71285"
"Lycée Fustel de Coulanges";"1 place du Château";"48.58188096186847";"7.752453088760376";"1032";"88076"
"Ecole maternelle Sainte-Madeleine";"3 Place Sainte-Madeleine";"48.57959191751063";"7.754314541816711";"1033";"92817"
"Ecole Schoepflin";"6 quai Schoepflin";"48.58687036441833";"7.748397588729858";"1036";"86477"
"Villa Schweitzer";"4 Allée du Sommerhof";"48.57491768641218";"7.71091103553772";"1038";"92817"
;"13 rue de Rhinau";"48.5646311";"7.7633692";"1039";"92817"
;"20 rue Saint Aloïse";"48.5655925";"7.7635187";"1040";"92817"
;"21 rue des Orphelins";"48.579307997806275";"7.755419611930847";"1041";"92817"
;"23 rue des Orphelins";"48.579414467882295";"7.755553722381592";"1042";"92817"
;"25 rue des Orphelins";"48.57955820212917";"7.75572270154953";"1043";"92817"
"L'Archevêché";"16 rue Brûlée";"48.5848692";"7.7528433";"1044";"70648"
"Ancienne Manufacture de Tabac (actuel SEITA)";"7 rue de la Krutenau";"48.5810931164398";"7.758074998855591";"1045";"79141"
"Zum Katzenroller";"2 rue du Parchemin";"48.5843288";"7.7536611";"1047";"NULL"
"Rénovation d'un 2 pièces à Neudorf";"2 rue de Plobsheim";"48.5650711";"7.7650715";"1048";"NULL"
;"2 rue de Plobsheim";"48.56514370434507";"7.7654001116752625";"1049";"64376"
"Collège Doctoral Européen";"46 boulevard de la Victoire";"48.581227973735615";"7.768428325653076";"1050";"90466"
"Rectorat de l'Académie";"27 Boulevard du Président Poincaré";"48.58961680966845";"7.741456031799316";"1051";"92817"
;"23 rue de Bâle";"48.56778838564868";"7.76495486497879";"1052";"59565"
"Oeuvre notre dame";"3 place du Château";"48.58099552211975";"7.751455307006836";"1054";"92817"
"Ecole Municipale de Musique";"57 rue Principale";"48.6043403";"7.7504989";"1056";"92817"
"Lycée ORT";"11 rue Sellénick";"48.59089417520567";"7.750897407531738";"1057";"92817"
"Villa Herrenschmidt";"34 rue du Wacken";"48.600217965393426";"7.758648991584778";"1058";"23513"
;"20 avenue Jean Jaurès";"48.5705865";"7.7592595";"1060";"36537"
;"9 rue Klein";"48.57891760560896";"7.753201425075531";"1061";"25229"
"Ecole Nationale du Génie de l'Eau et de l'Environnement (ENGEEE)";"1 quai Koch";"48.58500383194155";"7.758010625839233";"1063";"71984"
"Hôtel Régent Contades";"8 avenue de la Liberté";"48.5857490337831";"7.758375406265259";"1065";"6594"
"Boutique culture";"11 rue Mercière";"48.581508333804344";"7.749878168106079";"1068";"76994"
;"2 rue du Parchemin";"48.5843260435819";"7.7537888288497925";"1069";"21961"
;"28 rue de la Ziegelau";"48.5640396";"7.7656407";"1070";"92817"
;"72 Rue du Faubourg National";"48.5822759";"7.7338199";"1071";"89524"
;"29 Rue des Grandes Arcades";"48.583172717889134";"7.747037708759308";"1073";"92817"
;"15 rue des Tonneliers";"48.5802503";"7.7490971";"1074";"92817"
;"7 rue Paul  Muller Simonis";"48.589760514903375";"7.7492183446884155";"1076";"90408"
;"16 rue du Maréchal Foch";"48.5894233";"7.7491923";"1077";"92817"
;"10 rue Paul  Muller Simonis";"48.5899704";"7.7495316";"1078";"92817"
;"14 rue du Maréchal Foch";"48.58942520205277";"7.748734205961227";"1080";"76340"
;"4 rue du Maréchal Foch";"48.58968422699006";"7.74785041809082";"1081";"92817"
;"3 rue Paul  Muller Simonis";"48.58935423608481";"7.749076187610626";"1082";"92817"
;"19 rue du Maréchal Foch";"48.5893621";"7.7494042";"1083";"92817"
;"52 Allée de la Robertsau";"48.590026634629695";"7.767956256866455";"1084";"71480"
;"58 Allée de la Robertsau";"48.5904894";"7.768239";"1085";"92817"
;"84  Grand Rue";"48.58182418062657";"7.742636203765869";"1087";"77604"
"Collège épiscopal Saint Etienne";"9 rue des Couples";"48.579290252771806";"7.752732038497925";"1088";"92817"
;"33 rue du Maréchal Foch";"48.58896947995282";"7.751344200069411";"1090";"92817"
;"35 rue du Maréchal Foch";"48.5888228";"7.7512653";"1091";"92817"
;"37 rue du Maréchal Foch";"48.588797149774436";"7.751718163490295";"1092";"86048"
"18  Ail";"18 rue de l' Ail";"48.5796683";"7.7477699";"1093";"80722"
"7 avenue Jean Jaurès";"7 d avenue Jean Jaurès";"48.57089970275284";"7.759601175785065";"1094";"103692"
"18 avenue Jean Jaurès";"18 a avenue Jean Jaurès";"48.5706453";"7.7590601";"1095";"92817"
"23 avenue Jean Jaurès";"23 a avenue Jean Jaurès";"48.570054891713504";"7.76258111000061";"1096";"92817"
"18 avenue Jean Jaurès";"18 bis avenue Jean Jaurès";"48.5706453";"7.7590601";"1097";"92817"
"67 avenue Jean Jaurès";"67 a avenue Jean Jaurès";"48.56790451359054";"7.770784454630984";"1098";"100232"
"11  Juifs";"11 rue des Juifs";"48.583304020910944";"7.752088308334351";"1099";"92817"
"5 place de l' Homme de fer";"5 place de l' Homme de fer";"48.583903751997646";"7.743773460388184";"1104";"77167"
"4 rue du Saumon";"4 rue du Saumon";"48.58249132795988";"7.746464309192675";"1105";"89520"
"5 rue des chandelles";"5 rue des chandelles";"48.5824578";"7.7463783";"1106";"89520"
"2 rue Auguste Lamey";"2 rue Auguste Lamey";"48.58777876593087";"7.755671739578247";"1107";"92817"
"64 avenue de colmar";"64 Avenue de Colmar";"48.569856110594195";"7.75409460067749";"1108";"92817"
"56 avenue de colmar";"56 Avenue de Colmar";"48.569969699900916";"7.7542126178741455";"1109";"92817"
"1 rue d' Austerlitz";"1 rue d' Austerlitz";"48.579059566756825";"7.7517154812812805";"1110";"4675"
"4 Place du corbeau";"4 Place du Corbeau";"48.5792215";"7.7510818";"1111";"4675"
"102 rue de Bâle";"102 rue de Bâle";"48.5665494";"7.7660521";"1113";"6231"
"1 rue de kayserberg";"1 rue de Kayserberg";"48.5631130632309";"7.764292359352112";"1114";"92817"
"8 rue de la Ziegelau";"8 bis rue de la Ziegelau";"48.56309708758422";"7.764327228069305";"1115";"92817"
"53 rue de la grossau";"53 rue de la Grossau";"48.5645784";"7.7638079";"1116";"92817"
"6 Tabac rue du";"6 rue du Tabac";"48.56475142775625";"7.759072780609131";"1117";"92817"
"6 rue de Drulingen";"6 rue de Drulingen";"48.59009050315546";"7.748150825500488";"1118";"92817"
"6 rue Louis Apfell";"6 rue Louis Apffel";"48.5892518";"7.7540526";"1119";"92817"
"8 rue Louis Apfell";"8 rue Louis Apffel";"48.589366655136395";"7.754368185997009";"1120";"69937"
"14 rue Louis Apfell";"14 rue Louis Apffel";"48.5896837";"7.7543258";"1121";"92817"
"19 rue du Marais Kageneck";"19 rue du Marais Kageneck";"48.58506060961141";"7.738677263259888";"1122";"4021"
"31 rue Kageneck";"31 rue Kageneck";"48.58638067245428";"7.738752365112305";"1123";"4031"
"6 rue du Marais Kageneck";"6 rue du Marais Kageneck";"48.5865865";"7.7385734";"1124";"4031"
"3 cour de l' Aubette";"3 cour de l' Aubette";"48.58398182297656";"7.745661735534668";"1125";"4328"
"29 Allée de la Robertsau";"29 Allée de la Robertsau";"48.588044896093805";"7.764882445335388";"1127";"96021"
"25 Allée de la Robertsau";"25 Allée de la Robertsau";"48.58778586275339";"7.764512300491333";"1128";"92817"
"17 rue du Fossé-des-Treize";"17 rue du Fossé-des-Treize";"48.58830037973166";"7.746954560279846";"1129";"97452"
"39 rue du Fossé-des-Treize";"39 rue du Fossé-des-Treize";"48.5897403";"7.7463575";"1130";"92817"
"12 rue de l' Epine";"12 rue de l' Epine";"48.58052440506989";"7.748188376426697";"1131";"102333"
"11 rue de l' Epine";"11 rue de l' Epine";"48.58072091094173";"7.747801840475404";"1132";"92817"
"173 rue du Général de Gaulle";"173 rue du Général de Gaulle";"48.6124784";"7.7332949";"1133";"92817"
"2 quai Kleber";"2 Quai Kléber";"48.585316";"7.7421252";"1134";"85394"
"2 place du petit broglie";"2 place du Petit Broglie";"48.585323205504835";"7.753225564956665";"1135";"5446"
"7 place de la république";"7 place de la République";"48.58641615753868";"7.755199670791626";"1136";"97915"
"21 place Broglie";"21 place Broglie";"48.5849218";"7.7505061";"1137";"110614"
"20 place Broglie";"20 place Broglie";"48.5845208";"7.7495648";"1138";"110614"
"18 place Broglie";"18 a place Broglie";"48.5860898";"7.7520768";"1140";"104174"
"3 rue Brulée";"3 rue Brûlée";"48.5840221";"7.7498437";"1141";"110614"
"7 rue Brulée";"7 rue Brûlée";"48.5843461";"7.750728";"1142";"110614"
"18 place Broglie";"18 bis place Broglie";"48.58611098499864";"7.751659154891968";"1143";"92817"
"20 rue des veaux";"20 rue des Veaux";"48.582526";"7.7552534";"1144";"92817"
"7 Avenue Alsace";"7 Avenue d' Alsace";"48.587363600078135";"7.76010274887085";"1145";"92817"
"1 rue Gustave Klotz";"1 rue Gustave Klotz";"48.58740618134821";"7.76010274887085";"1146";"92817"
"22 rue des veaux";"22 rue des Veaux";"48.5826816";"7.7554757";"1147";"4138"
"25 place Broglie";"25 place Broglie";"48.5853141";"7.7504503";"1148";"NULL"
"23 rue Saint Erhard";"23 rue Saint Erhard";"48.5671245";"7.7531831";"1149";"92817"
"2 place Albert Schweitzer";"2 place Albert Schweitzer";"48.56350180241139";"7.769941091537476";"1150";"92817"
"11 rue de Cernay";"11 rue de Cernay";"48.5648637";"7.7690169";"1151";"26306"
"4 place du Foin";"4 place du Foin";"48.5795461";"7.7614334";"1152";"92817"
"3 rue René Descartes";"3 rue René Descartes";"48.578807585445155";"7.766937017440796";"1153";"89251"
"2 rue Baldung Grien";"2 rue Baldung Grien";"48.59019517639813";"7.752866148948669";"1155";"4174"
"8 rue Oberlin";"8 Rue Oberlin J.F.";"48.5901436";"7.7527593";"1156";"4174"
"37 boulevard clémenceaux";"37 boulevard Clémenceau";"48.591937333107666";"7.750833034515381";"1157";"53977"
"43 rue du Neufeld";"43 rue du Neufeld";"48.5668681";"7.756264";"1158";"92817"
"3 rue Mariano";"3 rue Mariano";"48.5704435";"7.7612751";"1159";"92817"
"33 rue Saint-Urbain";"33 rue Saint Urbain";"48.571078957061566";"7.762033939361572";"1160";"92817"
"37 quai Charles Frey";"37 quai Charles Frey";"48.5786404";"7.7458633";"1161";"NULL"
"12 rue Saint Louis";"12 rue Saint Louis";"48.57828055004927";"7.745152115821838";"1162";"58487"
"2 quai Charles Frey";"2 quai Charles Frey";"48.5785979";"7.7461361";"1163";"92817"
"11 quai Finkwiller";"11 quai Finkwiller";"48.57868514336843";"7.744645178318024";"1164";"92817"
"15 quai Finkwiller";"15 quai Finkwiller";"48.57909328247084";"7.743760049343109";"1165";"88797"
"29 rue Saint-Urbain";"29 rue Saint Urbain";"48.5710308";"7.7616606";"1166";"92817"
"1 rue Munch";"1 bis rue Munch";"48.582207452771456";"7.757388353347778";"1167";"59185"
"23 boulevard clémenceaux";"23 boulevard Clémenceau";"48.59161090505893";"7.7484941482543945";"1168";"92817"
"11 rue de Phalsbourg";"11 rue de Phalsbourg";"48.5919439";"7.7486992";"1169";"92817"
"1 rue Gustave Doré";"1 rue Gustave Doré";"48.58338564153636";"7.742196321487427";"1170";"92817"
"5 rue Gustave Doré";"5 rue Gustave Doré";"48.583179815358505";"7.742282152175903";"1171";"92817"
"3 rue Gustave Doré";"3 rue Gustave Doré";"48.583304020910944";"7.742298245429993";"1172";"16759"
"6 rue Boussingault";"6 rue Boussingault";"48.59051096893503";"7.785100936889648";"1173";"NULL"
"13 rue du Général Gouraud";"13 rue du Général Gouraud";"48.58831989578979";"7.757146954536438";"1174";"83021"
"4 rue du rempart";"4 rue du Rempart";"48.583520492715635";"7.728549242019653";"1175";"92817"
"15 rue Thiergarten";"15 rue Thiergarten";"48.5850189";"7.7377486";"1176";"62985"
"30 rue Pierre De Coubertin";"30 rue Pierre De Coubertin";"48.60232515900329";"7.769522666931152";"1177";"92817"
"7  rue René Descartes";"7 rue René Descartes";"48.579737425741065";"7.763192653656006";"1178";"92817"
"93 route du Neuhof";"93 Avenue du Neuhof";"48.548361843024026";"7.766132354736328";"1179";"92817"
"3 rue de Rohan";"3 rue Rohan";"48.58075952053065";"7.751702070236206";"1180";"4367"
"2 rue Grandidier";"2 bis rue Grandidier";"48.58418764588836";"7.7610039710998535";"1183";"92817"
"35 avenue de la paix";"35 avenue de la Paix";"48.59212893119758";"7.756830453872681";"1184";"89823"
"3 rue de la course";"3 rue de la Course";"48.5833074";"7.7378913";"1185";"NULL"
"4 place Saint pierre le jeune";"4 Place Saint Pierre le Jeune";"48.58511029002021";"7.745994329452515";"1186";"92817"
"9 rue de Thann";"9 rue de Thann";"48.5673281";"7.7590472";"1188";"92817"
"7 rue de Thann";"7 rue de Thann";"48.5672896";"7.7588502";"1189";"92817"
"17 rue du Vieux Marché aux grains";"17 rue du Vieux Marché aux grains";"48.58228552637058";"7.747249603271484";"1190";"97550"
"20 rue du Vieux Marché aux grains";"20 rue du Vieux Marché aux grains";"48.581988";"7.7474249";"1191";"NULL"
"2 rue du Chemin de Fer";"2 a rue du Chemin de Fer";"48.5786589";"7.7088777";"1193";"92817"
"120 route des Romains";"120 route des Romains";"48.578582220813644";"7.70815372467041";"1194";"76604"
"122 route des Romains";"122 route des Romains";"48.57856979911184";"7.7079713344573975";"1195";"76605"
"95 route des Romains";"95 route des Romains";"48.5784567";"7.7084997";"1196";"92817"
"3 Boulevard du Président Wilson";"3 bis Boulevard du Président Wilson";"48.58738134227835";"7.737164497375488";"1197";"87458"
"3 Boulevard du Président Wilson";"3 ter Boulevard du Président Wilson";"48.587501989074696";"7.738022804260254";"1198";"NULL"
"11 rue Argenton";"11 rue Argenton";"48.5503394";"7.769351";"1199";"111090"
"17 rue de la douane";"17 rue de la Douane";"48.57970193596739";"7.749781608581543";"1201";"92817"
"2 rue des Tonneliers";"2 rue des Tonneliers";"48.5797006";"7.7496266";"1202";"92817"
"1 rue de la Ziegelau";"1 rue de la Ziegelau";"48.56333139656308";"7.7635252475738525";"1203";"4497"
"7 rue hunawihr";"7 rue Hunawihr";"48.564452";"7.7676487";"1204";"59892"
"7 rue hunawihr";"7 bis rue Hunawihr";"48.56466622700897";"7.767988443374634";"1205";"24600"
"138 rue de Bâle";"138 rue de Bâle";"48.564728352568046";"7.768103778362274";"1206";"24600"
"165 route du Neuhof";"165 Avenue du Neuhof";"48.54578717317259";"7.766159176826477";"1208";"92817"
"1 Allée Reuss";"1 Allée Reuss";"48.545197";"7.7688177";"1209";"NULL"
"15 Place du Temple Neuf";"15 Place du Temple-Neuf";"48.58338386717632";"7.747638523578644";"1211";"106196"
"16 Place du Temple Neuf";"16 Place du Temple-Neuf";"48.583435323591644";"7.7476948499679565";"1212";"106196"
"53 rue du Neufeld";"53 rue du Neufeld";"48.5663143";"7.7565792";"1213";"92817"
"1 rue de Munster";"1 rue de Munster";"48.57178709410691";"7.7650755643844604";"1215";"33173"
"2 rue de Munster";"2 rue de Munster";"48.57177999503787";"7.765359878540039";"1216";"33173"
"3 rue de Munster";"3 rue de Munster";"48.571755148288396";"7.765735387802124";"1217";"33173"
"4 rue de Munster";"4 rue de Munster";"48.571719652910815";"7.766105532646179";"1218";"33173"
"1 rue du vingt deux novembre";"1 Rue du Vingt-Deux Novembre";"48.583073353213464";"7.740737199783325";"1219";"64980"
"9 rue de la Kurvau";"9 rue de la Kurvau";"48.57152265311237";"7.767030894756317";"1220";"92817"
"7 rue de la Kurvau";"7 rue de la Kurvau";"48.571755148288396";"7.767167687416077";"1221";"92817"
"6 rue de Bergheim";"6 rue de Bergheim";"48.5685597";"7.7701978";"1222";"92817"
"13 place de Haguenau";"13 place de Haguenau";"48.5918921";"7.7441923";"1225";"92817"
"6 rue jacques kablé";"6 Rue Jacques Kablé";"48.592214085670996";"7.745130658149719";"1226";"56098"
"4 rue du chevreuil";"4 a rue du Chevreuil";"48.5892046";"7.7445819";"1227";"2810"
"15 rue des Foulons";"15 rue des Foulons";"48.573655889363394";"7.728313207626343";"1228";"6161"
"4 rue jacques kablé";"4 Rue Jacques Kablé";"48.59221585972099";"7.744910717010498";"1229";"92817"
"2 rue Pierre Large";"2 rue de la Pierre Large";"48.583520492715635";"7.756025791168213";"1230";"103968"
"10 rue de la Nuée Bleue";"10 a rue de la Nuée Bleue";"48.58528771965301";"7.747389078140259";"1231";"91075"
"1 place Saint pierre le jeune";"1 Place Saint Pierre le Jeune";"48.5852863";"7.747242";"1232";"91075"
"8 quai des Bateliers";"8 quai des Bateliers";"48.57975159999999";"7.751986600000009";"1233";"100763"
"3 place Saint pierre le jeune";"3 Place Saint Pierre le Jeune";"48.5851012";"7.7466685";"1234";"92817"
"42 rue de la première armée";"42 Rue de la Première Armée";"48.57542168655849";"7.75309681892395";"1235";"13928"
"13 rue du Faubourg national";"13 Rue du Faubourg National";"48.58235827666125";"7.737057209014893";"1236";"92817"
"38 rue Geroldseck";"38 rue Geroldseck";"48.5823879";"7.7142648";"1239";"92817"
"12 rue de la Rape";"12 Rue de la Râpe";"48.5817772";"7.7532197";"1240";"92817"
"24 passage Walter Benjamin ";"24 passage Walter Benjamin ";"48.5855424";"7.7498508";"1241";"92817"
"46 rue Geroldseck";"46 rue Geroldseck";"48.5820775";"7.7150382";"1243";"92817"
"1 rue du Général Castelnau";"1 rue du Général de Castelnau";"48.58848134652701";"7.749470472335815";"1245";"8978"
"10 rue du Général Castelnau";"10 rue du Général de Castelnau";"48.588351345115065";"7.74990723624569";"1246";"92817"
"32 rue de Soultz";"32 rue de Soultz";"48.5647896";"7.7779795";"1247";"92817"
"11 rue de Koenigshoffen";"11 a rue de Koenigshoffen";"48.579581270550506";"7.728431224822998";"1248";"65571"
"3 rue de l' Ecrevisse";"3 rue de l' Ecrevisse";"48.58650132163956";"7.7491700649261475";"1249";"86941"
"6 rue Marbach";"6 rue Marbach";"48.58515997038018";"7.744846343994141";"1250";"92817"
"34 rue de Soultz";"34 rue de Soultz";"48.5649864";"7.7782169";"1251";"92817"
"30 rue de Soultz";"30 rue de Soultz";"48.5655749";"7.7782858";"1252";"92817"
"44 rue du Neufeld";"44 rue du Neufeld";"48.5660842";"7.7566884";"1253";"92817"
"13 rue de la Nuée Bleue";"13 rue de la Nuée Bleue";"48.5857543";"7.7472211";"1254";"45918"
"1 rue du Tribunal";"1 rue du Tribunal";"48.585784519311";"7.747410535812378";"1255";"45918"
"32 Boulevard du Président Poincaré";"32 Boulevard du Président Poincaré";"48.58994325059955";"7.7415525913238525";"1256";"92817"
"2 rue de Wissembourg";"2 bis rue de Wissembourg";"48.590007119230734";"7.74137020111084";"1257";"92817"
"110 route du Rhin";"110 Avenue du Rhin";"48.569728322319115";"7.776668071746826";"1258";"NULL"
"31 rue Aristide Briand";"31 avenue Aristide Briand";"48.569202967128824";"7.776206731796265";"1259";"88477"
"5 rue du dôme";"5 Rue du Dôme";"48.5836676";"7.749949";"1260";"92817"
"2 rue de la Fonderie";"2 rue de la Fonderie";"48.586597131081504";"7.74885892868042";"1262";"86941"
"9 place Broglie";"9 place Broglie";"48.58511029002021";"7.749556303024292";"1263";"105942"
"10 place Broglie";"10 place Broglie";"48.58515109889092";"7.749784290790558";"1264";"92817"
"8 rue du rempart";"8 rue du Rempart";"48.582775258014394";"7.728356122970581";"1265";"92817"
"3 rue du rempart";"3 rue du Rempart";"48.58619260109103";"7.730196118354797";"1266";"92817"
"11 rue Charles Grad";"11 rue Charles Grad";"48.59346300145978";"7.761797904968262";"1267";"69878"
"5 rue Charles Grad";"5 rue Charles Grad";"48.59342042529343";"7.761282920837402";"1268";"92817"
"2 rue Edouard Teutsch";"2 rue Edouard Teutsch";"48.59288822018692";"7.760317325592041";"1270";"102141"
"9 Boulevard Ohmacht";"9 a Boulevard Ohmacht";"48.59273210562563";"7.760435342788696";"1271";"102141"
"1 rue Sainte Elisabeth";"1 rue Sainte Elisabeth";"48.57735955581337";"7.742968797683716";"1272";"98631"
"4 rue Sainte Elisabeth";"4 rue Sainte Elisabeth";"48.57708449647749";"7.744060456752777";"1273";"17028"
"25 rue du General Uhrich";"25 a rue du General Uhrich";"48.59303723818182";"7.767237424850464";"1274";"104530"
"15 rue de l' Arc-En-Ciel";"15 rue de l' Arc-En-Ciel";"48.5842909";"7.7546465";"1276";"92817"
"15 rue des Juifs";"15 rue des Juifs";"48.583477908171574";"7.75235116481781";"1277";"92817"
"17 rue du Maréchal Foch";"17 rue du Maréchal Foch";"48.5596496";"7.6909399";"1278";"NULL"
"17 rue Maréchal Joffre";"17 rue Maréchal Joffre";"48.586962624691935";"7.758235931396484";"1279";"4753"
"16 rue Maréchal Joffre";"16 rue Maréchal Joffre";"48.58686185628721";"7.758117565606653";"1280";"4755"
"10 place de la Cathédrale";"10 Place de la Cathédrale";"48.5815414";"7.7501426";"1281";"77469"
"14 rue Maréchal Joffre";"14 rue Maréchal Joffre";"48.58686039695249";"7.757978896295185";"1282";"92817"
"12 rue Maréchal Joffre";"12 rue Maréchal Joffre";"48.5869151";"7.7579045";"1283";"92817"
"17 rue des Charpentiers";"17 rue des Charpentiers";"48.5839362";"7.7525583";"1284";"92817"
"20 rue des Charpentiers";"20 rue des Charpentiers";"48.584117";"7.75208";"1285";"92817"
"13 rue de l' Arc-En-Ciel";"13 rue de l' Arc-En-Ciel";"48.5841826";"7.7546098";"1286";"92817"
"12 rue de l' Arc-En-Ciel";"12 rue de l' Arc-En-Ciel";"48.5844429";"7.7546172";"1287";"92817"
"120 route de Mittelhausbergen";"120 route de Mittelhausbergen";"48.59601927970016";"7.717104256153107";"1288";"92817"
"122 route de Mittelhausbergen";"122 route de Mittelhausbergen";"48.596187801479594";"7.716827988624573";"1289";"92817"
"1 place d' Athènes";"1 place d' Athènes";"48.5789366";"7.7687201";"1290";"89251"
"34 rue du Neufeld";"34 rue du Neufeld";"48.5674733";"7.7558351";"1292";"92817"
"98 route du polygone";"98 a Route du Polygone";"48.56522357929575";"7.759520709514618";"1293";"74794"
"41 rue du Maréchal Foch";"41 rue du Maréchal Foch";"48.588694247809464";"7.752062827348709";"1294";"73543"
"11 rue du Général Frère";"11 rue du Général Frère";"48.5889024";"7.7523801";"1295";"73543"
"3 rue Sellenick";"3 rue Sellénick";"48.5905748368486";"7.748891115188599";"1296";"69488"
"1 Allée du Zénith";"1 Allée du Zénith";"48.593129487196514";"7.686889171600342";"1303";"86281"
"115  Grand rue";"115  Grand Rue";"48.581256364699406";"7.745565176010132";"1304";"92817"
"4 rue Blaise Pascal";"4 rue Blaise Pascal";"48.58055368365858";"7.765982151031494";"1305";"92817"
"8 rue des Pucelles";"8 rue des Pucelles";"48.5838782";"7.7539551";"1306";"92817"
"10 rue des Pucelles";"10 rue des Pucelles";"48.5840472";"7.7538361";"1307";"5077"
"1 rue des Récollets";"1 rue des Récollets";"48.58501802636499";"7.754255533218384";"1308";"76829"
"2 quai Lezay Marnesia";"2 ter quai Lezay Marnesia";"48.58514577599661";"7.754244804382324";"1309";"76829"
"25 quai des Bateliers";"25 quai des Bateliers";"48.5807338";"7.7538594";"1310";"92817"
"7 rue des Frères";"7 a rue des Frères";"48.58265726151238";"7.752137929201126";"1311";"94419"
"31 rue du dôme";"31 Rue du Dôme";"48.58251264888238";"7.751423120498657";"1312";"92817"
"1 rue des Frères";"1 rue des Frères";"48.58246651470477";"7.751476764678955";"1313";"92817"
"24 rue de Orfèvres";"24 rue des Orfèvres";"48.5822074";"7.7492221";"1314";"92817"
"22 rue des Hallebardes";"22 rue des Hallebardes";"48.5820759";"7.7494562";"1316";"92817"
"15 place de la Cathédrale";"15 Place de la Cathédrale";"48.58206195165128";"7.749636769294739";"1317";"92817"
"5 rue des Hallebardes";"5 rue des Hallebardes";"48.581877413042704";"7.748896479606628";"1319";"72839"
"7 rue des Hallebardes";"7 rue des Hallebardes";"48.58189338275661";"7.748971581459045";"1320";"62976"
"103  Grand rue";"103  Grand Rue";"48.58136283067162";"7.745007276535034";"1321";"88645"
"126  Grand rue";"126  Grand Rue";"48.58111618416065";"7.745369374752045";"1322";"69479"
"4 rue du Maroquin";"4 rue du Maroquin";"48.580684993484105";"7.750878632068634";"1323";"37870"
"1 rue des Arquebusiers";"1 rue des Arquebusiers";"48.58968777526765";"7.75860071182251";"1324";"92817"
"6 rue de turenne";"6 Rue  Turenne";"48.588694247809464";"7.756969928741455";"1325";"92817"
"1 quai Finkmatt";"1 quai Finkmatt";"48.587260695194";"7.746638059616089";"1327";"92817"
"17 quai Kleber";"17 Quai Kléber";"48.587069078644475";"7.746208906173706";"1328";"92817"
"16 rue de la division leclerc";"16 rue de la Division Leclerc";"48.57995746178172";"7.747260332107544";"1329";"93858"
"18 rue de la division leclerc";"18 rue de la Division Leclerc";"48.579879384586604";"7.747410535812378";"1330";"93858"
"20 rue de Bouxwiller";"20 rue de Bouxwiller";"48.58984389923506";"7.740769386291504";"1331";"5152"
"21 rue des Magasins";"21 rue des Magasins";"48.5908711119475";"7.740511894226074";"1332";"92817"
"22 rue des Magasins";"22 bis rue des Magasins";"48.590833855892825";"7.741061747074127";"1333";"92817"
"65 route du Rhin";"65 Avenue du Rhin";"48.57297972355576";"7.795674204826355";"1334";"92817"
"5 rue jacques kablé";"5 Rue Jacques Kablé";"48.5927675862501";"7.744921445846558";"1335";"92817"
"16 Boulevard du Président Poincaré";"16 Boulevard du Président Poincaré";"48.5901514";"7.7429035";"1336";"92817"
"2 Boulevard du Président Poincaré";"2 Boulevard du Président Poincaré";"48.590581933278464";"7.744191884994507";"1337";"92817"
"1 rue de Haguenau";"1 rue de Haguenau";"48.59063870468147";"7.744342088699341";"1338";"92817"
"11 Boulevard du Président Poincaré";"11 Boulevard du Président Poincaré";"48.5900807";"7.7432078";"1339";"92817"
"26 Boulevard du Président Poincaré";"26 Boulevard du Président Poincaré";"48.59001421574032";"7.74186372756958";"1340";"106847"
"23 Boulevard du Président Poincaré";"23 Boulevard du Président Poincaré";"48.5897022";"7.7417806";"1342";"56322"
"16 rue de Bouxwiller";"16 rue de Bouxwiller";"48.5893398";"7.7416064";"1343";"56322"
"9 rue du Travail";"9 rue du Travail";"48.5895387473942";"7.74211049079895";"1344";"56322"
"21 Boulevard du Président Poincaré";"21 Boulevard du Président Poincaré";"48.5898849";"7.7424206";"1345";"92817"
"16 rue du Travail";"16 rue du Travail";"48.5897876";"7.7423251";"1346";"92817"
"24 Boulevard du Président Poincaré";"24 Boulevard du Président Poincaré";"48.59005679477692";"7.742131948471069";"1347";"53529"
"1 rue de Bischwiller";"1 rue de  Bischwiller";"48.59012066326457";"7.742217779159546";"1348";"53529"
"6 rue Jacques Peirotes";"6 bis rue Jacques Peirotes";"48.57721758989141";"7.755478620529175";"1349";"65193"
"5 place du Chateau";"5 place du Château";"48.5812322";"7.750544";"1350";"92817"
"2 place de la Cathédrale";"2 bis Place de la Cathédrale";"48.58117119176018";"7.750586271286011";"1351";"92817"
"2 rue de la Haute Montée";"2 bis rue de la Haute Montée";"48.58430830030906";"7.745028734207153";"1352";"NULL"
"5 rue Gutenberg";"5 rue Gutenberg";"48.581330890903516";"7.747281789779663";"1353";"96969"
"20 place de Bordeaux";"20 place de Bordeaux";"48.59606007976149";"7.757999897003174";"1354";"92817"
"5 place de Bordeaux";"5 place de Bordeaux";"48.59334946493647";"7.757549285888672";"1355";"92817"
"8 rue Abbe Lemire";"8 rue de l' Abbé Lemire";"48.57513774343205";"7.726242542266846";"1356";"107898"
"24 quai Saint-Nicolas";"24 quai Saint Nicolas";"48.57916781186418";"7.750615775585175";"1357";"85138"
"22 rue du Fossé Riepberg";"22 rue du Fossé Riepberg";"48.5675794";"7.7680244";"1358";"32358"
"5 Place du corbeau";"5 Place du Corbeau";"48.5791554";"7.7511504";"1359";"92817"
"8 rue du Faubourg de saverne";"8 Rue du Faubourg de Saverne";"48.5851954563217";"7.740715742111206";"1360";"92817"
"17 rue ehrmann";"17 rue ehrmann";"48.5920303";"7.7550362";"1361";"92817"
"45 boulevard clémenceaux";"45 boulevard Clémenceau";"48.59228504762255";"7.7546632289886475";"1362";"73795"
"10 rue Mercière";"10 rue Mercière";"48.58134774800587";"7.74979367852211";"1363";"82492"
"45 avenue Jean Jaurès";"45 avenue Jean Jaurès";"48.568961585887095";"7.766349613666534";"1364";"29243"
"47 avenue Jean Jaurès";"47 avenue Jean Jaurès";"48.56893318801819";"7.766625881195068";"1365";"92817"
"12 avenue Jean Jaurès";"12 bis avenue Jean Jaurès";"48.57104168641604";"7.757613658905029";"1366";"92817"
"6 impasse Ehrmann";"6 impasse Ehrmann";"48.5926105";"7.7554954";"1368";"92817"
"154 avenue de colmar";"154 Avenue de Colmar";"48.56065452935322";"7.74810791015625";"1369";"NULL"
"11 rue de Nomeny";"11 rue de Nomeny";"48.57109493018696";"7.756108939647675";"1370";"97132"
"56 rue Jean Giraudoux";"56 rue Jean Giraudoux";"48.587315";"7.7025129";"1371";"92817"
"2 rue de Dreistein";"2 bis rue de Dreistein";"48.5671565";"7.7613791";"1372";"24857"
"45 rue Saint-Urbain";"45 rue Saint Urbain";"48.57058201286244";"7.76347428560257";"1373";"92817"
"18 rue de Sainte Marie Aux Mines";"18 rue de Sainte Marie Aux Mines";"48.5665173";"7.7610955";"1374";"92817"
"4 rue de Sainte Marie Aux Mines";"4 rue de Sainte Marie Aux Mines";"48.5666389";"7.7624647";"1375";"92817"
"13 rue de Sainte Marie Aux Mines";"13 rue de Sainte Marie Aux Mines";"48.5665173";"7.7610955";"1376";"92817"
"18 rue ehrmann";"18 rue ehrmann";"48.59229214381222";"7.755199670791626";"1377";"92817"
"24 route du polygone";"24 Route du Polygone";"48.5703702";"7.7565112";"1378";"53244"
"22 route du polygone";"22 Route du Polygone";"48.570438253094046";"7.756304740905762";"1379";"92817"
"20 route du polygone";"20 Route du Polygone";"48.5705426";"7.7564585";"1380";"92817"
"19 route du polygone";"19 Route du Polygone";"48.5711675";"7.7563132";"1381";"92817"
"13 rue de Geispolsheim";"13 rue de Geispolsheim";"48.5702935";"7.7583254";"1383";"92817"
"21 route du polygone";"21 Route du Polygone";"48.5705308";"7.7564621";"1384";"92817"
"14 route du polygone";"14 Route du Polygone";"48.5709032523493";"7.756162583827972";"1385";"71893"
"12 rue de Nomeny";"12 rue de Nomeny";"48.57092454992269";"7.756240367889404";"1386";"71893"
"18 route du polygone";"18 Route du Polygone";"48.57058733729043";"7.756401300430298";"1387";"92817"
"9 rue de Nomeny";"9 rue de Nomeny";"48.57108428143725";"7.755902409553528";"1388";"92817"
"7 rue de Nomeny";"7 rue de Nomeny";"48.57103103765513";"7.7556100487709045";"1389";"92817"
"35 rue du Lazaret";"35 rue du Lazaret";"48.5631833";"7.757578";"1390";"92817"
"32 rue du Lazaret";"32 rue du Lazaret";"48.56327110866616";"7.758066336770639";"1391";"92817"
"32 rue Jules Rathgeber";"32 Rue Jules Rathgeber";"48.5648829";"7.7538582";"1392";"92817"
"34 rue Jules Rathgeber";"34 Rue Jules Rathgeber";"48.564907628753446";"7.753536701202393";"1393";"92817"
"24 rue Jules Rathgeber";"24 Rue Jules Rathgeber";"48.5652114";"7.7548619";"1394";"92817"
"26 rue Jules Rathgeber";"26 Rue Jules Rathgeber";"48.565340728995196";"7.754716873168945";"1395";"92817"
"1 rue Jules Rathgeber";"1 Rue Jules Rathgeber";"48.565848374557135";"7.758702635765076";"1396";"92817"
"4 rue du Faubourg de saverne";"4 Rue du Faubourg de Saverne";"48.584854790254646";"7.740973234176636";"1397";"66624"
"6 rue du Faubourg de saverne";"6 Rue du Faubourg de Saverne";"48.5850748040189";"7.7407801151275635";"1398";"105095"
"23 rue du Lazaret";"23 rue du Lazaret";"48.5630214";"7.7597696";"1399";"10046"
"18 boulevard de la Victoire";"18 boulevard de la Victoire";"48.5830626";"7.7624381";"1400";"73076"
"16 avenue de la paix";"16 bis avenue de la Paix";"48.59026259294811";"7.756519317626953";"1401";"70543"
"1 rue René Hirschler";"1 a rue René Hirschler";"48.59027678589453";"7.7565085887908935";"1403";"70543"
"31 avenue de la paix";"31 avenue de la Paix";"48.59161800134328";"7.75659441947937";"1405";"92817"
"33 avenue de la paix";"33 avenue de la Paix";"48.59188056316373";"7.756766080856323";"1406";"92817"
"1 quai des Bateliers";"1 quai des Bateliers";"48.579339938852634";"7.751830816268921";"1407";"98261"
"11 rue Mariano";"11 rue Mariano";"48.57158122070019";"7.7620285749435425";"1408";"92817"
"9 rue Mariano";"9 rue Mariano";"48.5711208";"7.7618677";"1409";"92817"
"23 avenue Jean Jaurès";"23 bis avenue Jean Jaurès";"48.57012588478102";"7.762294113636017";"1410";"92817"
"53 avenue Jean Jaurès";"53 avenue Jean Jaurès";"48.56862790992036";"7.767634391784668";"1411";"60323"
"25 rue du Maréchal Foch";"25 rue du Maréchal Foch";"48.5891531";"7.7501262";"1414";"69033"
"2 rue du Luxembourg";"2 Rue de Luxembourg";"48.674471";"7.8149151";"1416";"92817"
"24 rue Brulée";"24 rue Brûlée";"48.5847971";"7.7540521";"1417";"70656"
"7 rue du parchemin";"7 rue du Parchemin";"48.584675584787284";"7.7539122104644775";"1418";"92817"
"2 rue de la Marseillaise";"2 avenue de la Marseillaise";"48.585692256886624";"7.755188941955566";"1420";"65556"
"6 rue Gloxin";"6 rue Gloxin";"48.5896398";"7.7457498";"1421";"92817"
"99 route du polygone";"99 Route du Polygone";"48.5652477";"7.7598277";"1422";"36222"
"1 place de Haguenau";"1 a place de Haguenau";"48.591965718055704";"7.741338014602661";"1423";"41886"
"12 rue du Général Gouraud";"12 rue du Général Gouraud";"48.5876749";"7.7570396";"1424";"21862"
"7 rue des écrivains";"7 rue des Ecrivains";"48.581675129563116";"7.75335431098938";"1425";"92817"
"8 rue du Travail";"8 rue du Travail";"48.58916972410172";"7.742335796356201";"1426";"92817"
"20 rue du Maréchal Foch";"20 rue du Maréchal Foch";"48.5893447";"7.7494644";"1427";"92817"
"3 rue de Sarreguemines";"3 rue de Sarreguemines";"48.5899379";"7.7466915";"1428";"92817"
"71 avenue des vosges";"71 avenue des Vosges";"48.59046661616976";"7.747523188591003";"1429";"83989"
"73 avenue des vosges";"73 avenue des Vosges";"48.590532258248515";"7.747313976287842";"1430";"92817"
"17 boulevard clémenceaux";"17 boulevard Clémenceau";"48.591334149191795";"7.747324705123901";"1431";"92817"
"10 rue du Travail";"10 rue du Travail";"48.5893215";"7.742224";"1433";"92817"
"6 rue Gloxin";"6 a rue Gloxin";"48.5896398";"7.7457498";"1434";"92817"
"29 rue du Fossé-des-Treize";"29 rue du Fossé-des-Treize";"48.589029";"7.746836";"1435";"5443"
"10 rue Graumann";"10 rue Graumann";"48.5886298";"7.746948";"1436";"92817"
"17 Place du Temple Neuf";"17 Place du Temple-Neuf";"48.58372276880998";"7.7476948499679565";"1437";"46037"
"7 route de bischwiller";"7 route de Bischwiller";"48.60001930287557";"7.7430760860443115";"1438";"5449"
"6 Rue des Vignes";"6 Rue des Vignes";"48.615282112343934";"7.6888954639434814";"1439";"92817"
"1 Rue des Hautes Terres";"1 Rue des Hautes Terres";"48.61508173583206";"7.687412202358246";"1440";"100070"
"35 Rue du Zinkenthal";"35 Rue du Zinkenthal";"48.61517217134739";"7.684638798236847";"1441";"92817"
"33 Rue du Zinkenthal";"33 Rue du Zinkenthal";"48.614796242259985";"7.6847997307777405";"1442";"92817"
"29 Rue du Zinkenthal";"29 Rue du Zinkenthal";"48.614434496533136";"7.685312032699585";"1443";"92817"
"17 Rue du Zinkenthal";"17 Rue du Zinkenthal";"48.613445002333165";"7.686140835285187";"1444";"92817"
"9 Rue des Hautes Terres";"9 Rue des Hautes Terres";"48.6147288584485";"7.685816287994385";"1445";"92817"
"18 Rue des Vignes";"18 Rue des Vignes";"48.614757230590605";"7.686891853809357";"1446";"92817"
"20 Rue des Vignes";"20 Rue des Vignes";"48.614641968664046";"7.686637043952942";"1447";"92817"
"24 Rue des Vignes";"24 Rue des Vignes";"48.61436977214685";"7.686922699213028";"1448";"92817"
"14 Rue des Vignes";"14 Rue des Vignes";"48.61454621240188";"7.687216401100159";"1449";"92817"
"25 Rue des Vignes";"25 Rue des Vignes";"48.614452229227204";"7.6879459619522095";"1450";"92817"
"2 rue des Hallebardes";"2 rue des Hallebardes";"48.58158463406018";"7.74898499250412";"1451";"92817"
"5 rue du Fossé des Tailleurs";"5 rue du Fossé des Tailleurs";"48.5815491";"7.7491518";"1452";"92817"
"52 rue du Vieux Marche Aux Poissons";"52 Rue du Vieux Marché Aux Poissons";"48.58099907100742";"7.749277353286743";"1453";"83869"
"10 Clos des Vergers";"10 Clos des Vergers";"48.61632831307349";"7.697076201438904";"1454";"27814"
"18 Clos des Vergers";"18 Clos des Vergers";"48.61563675908805";"7.696255445480347";"1456";"88847"
"16 Clos des Vergers";"16 Clos des Vergers";"48.615806988640294";"7.696449905633926";"1457";"88336"
"15 Clos des Vergers";"15 Clos des Vergers";"48.616354911114506";"7.697888910770416";"1458";"92817"
"7 Rue de Londres";"7 Rue de Londres";"48.6731691";"7.8151536";"1459";"92817"
"9 Rue de Londres";"9 Rue de Londres";"48.6724098";"7.814611";"1460";"92817"
"11 Rue de Londres";"11 Rue de Londres";"48.6715673";"7.8149056";"1461";"92817"
"13 Rue de Londres";"13 Rue de Londres";"48.6734834";"7.8161414";"1462";"NULL"
"15 Rue de Londres";"15 Rue de Londres";"48.6734834";"7.8161414";"1463";"NULL"
"9 rue de Lisbonne";"9 Rue de Lisbonne";"48.675155481801674";"7.809965014457703";"1464";"92817"
"28 rue de Lisbonne";"28 Rue de Lisbonne";"48.6754167";"7.8113587";"1465";"92817"
"32 rue de Lisbonne";"32 Rue de Lisbonne";"48.675918";"7.8118422";"1466";"92817"
"3 rue de la Ziegelau";"3 rue de la Ziegelau";"48.563447";"7.7642804";"1467";"92817"
"1 rue du Bon Pasteur";"1 rue du Bon Pasteur";"48.58729617966048";"7.779452204704285";"1468";"92817"
"7 rue du Bon Pasteur";"7 rue du Bon Pasteur";"48.588236508943304";"7.78057336807251";"1469";"43914"
"9 rue du Bon Pasteur";"9 rue du Bon Pasteur";"48.58846360471297";"7.780798673629761";"1470";"45621"
"6 rue du Bon Pasteur";"6 rue du Bon Pasteur";"48.587835540483226";"7.780610918998718";"1471";"92817"
"35 rue Bautain";"35 rue Bautain";"48.5879490893966";"7.781270742416382";"1472";"92817"
"11 rue Bautain";"11 rue Bautain";"48.5877141";"7.7813004";"1473";"NULL"
"15 rue du Bon Pasteur";"15 rue du Bon Pasteur";"48.588946179834984";"7.781206369400024";"1474";"92817"
"8 rue du Bon Pasteur";"8 rue du Bon Pasteur";"48.58815844453676";"7.781023979187012";"1475";"43147"
"3 rue du Bon Pasteur";"3 rue du Bon Pasteur";"48.58765102295483";"7.779843807220459";"1476";"41221"
"19 rue du Bon Pasteur";"19 rue du Bon Pasteur";"48.589531650817854";"7.781399488449097";"1477";"42652"
"2 rue du Bon Pasteur";"2 rue du Bon Pasteur";"48.58711520862095";"7.77981698513031";"1478";"38649"
"10 rue du Bon Pasteur";"10 rue du Bon Pasteur";"48.588520378495936";"7.781420946121216";"1479";"92817"
"17 rue du Bon Pasteur";"17 rue du Bon Pasteur";"48.5892371420198";"7.781292200088501";"1481";"42389"
"5 rue du Bon Pasteur";"5 rue du Bon Pasteur";"48.587956186195235";"7.7801817655563354";"1482";"92817"
"29 rue Bautain";"29 rue Bautain";"48.58729617966048";"7.780535817146301";"1483";"92817"
"2 Rue André Le Notre";"2 Rue André Le Notre";"48.613359883646694";"7.690563797950745";"1484";"97063"
"6 Rue André Le Notre";"6 Rue André Le Notre";"48.61300167426842";"7.6901185512542725";"1485";"92817"
"10 Rue André Le Notre";"10 Rue André Le Notre";"48.61272858224305";"7.689608931541443";"1486";"92817"
"12 rue de la Schwanau";"12 rue de la Schwanau";"48.57120496713585";"7.755950689315796";"1488";"74503"
"2 Impasse de La Klamm";"2 Impasse de La Klamm";"48.615342402466176";"7.688053250312805";"1489";"92817"
"6 Impasse de La Klamm";"6 Impasse de La Klamm";"48.615732513281806";"7.689099311828613";"1490";"92817"
"17 Rue Principale";"17 Rue Principale";"48.61363297225746";"7.689067125320435";"1491";"21493"
"3 Rue des Jardins";"3 a Rue des Jardins";"48.0254262";"-4.0280847";"1492";"NULL"
"46 Rue Principale";"46 Rue Principale";"48.613966351156655";"7.6929402351379394";"1493";"92817"
"15 Rue Principale";"15 Rue Principale";"48.613498201439356";"7.688887417316437";"1494";"92817"
"21 Rue Principale";"21 Rue Principale";"48.613795228752004";"7.689474821090698";"1495";"92817"
"16 Rue de Strasbourg";"16 Rue de Strasbourg";"48.61426071580149";"7.695574164390564";"1496";"92817"
"22 Boulevard Leblois";"22 Boulevard Leblois";"48.58187386421671";"7.7709174156188965";"1497";"92817"
"30 rue de Metzeral";"30 rue de Metzeral";"48.5709539";"7.7695074";"1498";"92817"
"1 rue de Fegersheim";"1 rue de Fegersheim";"48.5709539";"7.7695074";"1499";"92817"
"3 rue Saint Léon";"3 rue Saint Léon";"48.5886521";"7.7485055";"1500";"92817"
"4 rue Geiler";"4 rue Geiler";"48.5876853";"7.7651121";"1501";"92817"
"2 Place Kleber";"2 Place Kléber";"48.5831219";"7.74646";"1502";"63775"
"3 Place Kleber";"3 Place Kléber";"48.5830922";"7.7463101";"1503";"63775"
"8 Quai Kellermann";"8 Quai Kellermann";"48.5862978";"7.7459741";"1504";"88749"
"9 Quai Kellermann";"9 Quai Kellermann";"48.5864638";"7.7464848";"1505";"92817"
"2 rue de la Nuée Bleue";"2 bis rue de la Nuée Bleue";"48.5863495";"7.7467591";"1506";"92817"
"6 rue Saint Pierre le Jeune";"6 rue Saint Pierre le Jeune";"48.58634518734498";"7.746176719665527";"1507";"88749"
"2 rue Saint-Arbogast";"2 rue Saint Arbogast";"48.5886064";"7.7492834";"1508";"9841"
"1 rue Saint-Arbogast";"1 rue Saint Arbogast";"48.58893198651481";"7.749282717704773";"1509";"92817"
"2 rue Saint Pierre le Jeune";"2 rue Saint Pierre le Jeune";"48.5853668";"7.7461526";"1510";"5605"
"4 rue Saint Pierre le Jeune";"4 rue Saint Pierre le Jeune";"48.5857101";"7.7459758";"1511";"92817"
"5 rue Saint Léon";"5 rue Saint Léon";"48.588878761528704";"7.748660445213318";"1512";"87315"
"8 quai Kleber";"8 Quai Kléber";"48.58608437102696";"7.7438244223594665";"1514";"92817"
"50 avenue des vosges";"50 avenue des Vosges";"48.58995034711811";"7.750661373138428";"1515";"92817"
"37 avenue des vosges";"37 avenue des Vosges";"48.589332946275";"7.7516162395477295";"1516";"92817"
"6 rue Oberlin";"6 Rue Oberlin J.F.";"48.58984389923506";"7.752426266670227";"1517";"92817"
"26 rue Sleidan";"26 rue Sleidan";"48.5857154";"7.7688003";"1518";"92817"
"20 rue de l' hôpital militaire";"20 rue de l' Hôpital militaire";"48.57814745943385";"7.759303450584412";"1519";"NULL"
"11 rue du Maréchal Juin";"11 rue du Maréchal Juin";"48.57835330610425";"7.76159405708313";"1520";"92817"
"6 Square d' Oslo";"6 Square d' Oslo";"48.674573877076924";"7.818518245507789";"1521";"92817"
"13 Rue de Madrid";"13 Rue de Madrid";"48.67753406132307";"7.811601161956787";"1522";"52645"
"13 rue de Lisbonne";"13 Rue de Lisbonne";"48.6749243";"7.8106853";"1523";"92817"
"15 rue de Lisbonne";"15 Rue de Lisbonne";"48.67531665492163";"7.8107428550720215";"1524";"92817"
"11 rue de Lisbonne";"11 Rue de Lisbonne";"48.6748779";"7.8101686";"1525";"92817"
"17 rue de Lisbonne";"17 Rue de Lisbonne";"48.6753974";"7.8113193";"1526";"92817"
"6 Rue d' Athènes";"6 Rue d' Athènes";"48.676960237078305";"7.812003493309021";"1527";"6869"
"16 Rue de Londres";"16 Rue de Londres";"45.6948607";"-0.3184728";"1528";"92817"
"8 Rue de Londres";"8 Rue de Londres";"45.6944916";"-0.3187318";"1529";"92817"
"4 rue du Cheval";"4 rue du Cheval";"48.5664488";"7.7686431";"1530";"92817"
"2 rue du Cheval";"2 rue du Cheval";"50.2301185";"2.1114279";"1531";"92817"
"43 rue Saint-Urbain";"43 rue Saint Urbain";"48.570628157886624";"7.763318717479706";"1532";"92817"
"41 rue Saint-Urbain";"41 rue Saint Urbain";"48.570704474564984";"7.763141691684723";"1533";"92817"
"16 rue des Foulons";"16 a rue des Foulons";"48.57389902288964";"7.728409767150879";"1534";"92817"
"1 Square d' Helsinki";"1 Square d' Helsinki";"60.166526";"24.9524144";"1536";"92817"
"15 rue d' Amsterdam";"15 Rue d' Amsterdam";"0";"0";"1537";"92817"
"12 rue Fischart";"12 rue Fischart";"48.58584839319844";"7.765617370605469";"1538";"92817"
"11 avenue de la Forêt noire";"11 avenue de la Forêt Noire";"48.5857490337831";"7.765864133834839";"1539";"31362"
"29 avenue de la Forêt noire";"29 avenue de la Forêt Noire";"48.585223845056966";"7.7676451206207275";"1540";"92817"
"30 rue Kageneck";"30 rue Kageneck";"48.58604711144307";"7.738838195800781";"1541";"92817"
"13 rue de Reims";"13 rue de Reims";"48.5861264";"7.7692818";"1542";"92817"
"49 avenue de la Forêt noire";"49 avenue de la Forêt Noire";"48.58381858351946";"7.771250009536743";"1544";"92817"
"4 rue Schoch";"4 rue Schoch";"48.58201581706229";"7.770498991012573";"1545";"74773"
"5 rue Stimmer";"5 rue Stimmer";"48.583023";"7.7708518";"1546";"5734"
"53 avenue de la Forêt noire";"53 avenue de la Forêt Noire";"48.58367841008664";"7.771606743335724";"1547";"92817"
"11 quai des Bateliers";"11 quai des Bateliers";"48.5800137";"7.752405";"1548";"55127"
"15 quai des Bateliers";"15 quai des Bateliers";"48.5802289";"7.7528577";"1549";"70761"
"6 rue des écrivains";"6 rue des Ecrivains";"48.58183837594301";"7.753370404243469";"1550";"68400"
"45 rue Goethe";"45 rue Goethe";"48.584528316452314";"7.768353223800659";"1551";"5976"
"42 avenue de la Forêt noire";"42 avenue de la Forêt Noire";"48.584663164582835";"7.768449783325195";"1552";"5976"
"1 rue de l' Argonne";"1 bis rue de l' Argonne";"48.583861167776504";"7.77132511138916";"1553";"NULL"
"14 quai des Bateliers";"14 quai des Bateliers";"48.5801751";"7.7527446";"1554";"70761"
"62 rue des Petites Fermes";"62 rue des Petites Fermes";"48.57993616801319";"7.7114152908325195";"1555";"92817"
"50 rue jacques kablé";"50 Rue Jacques Kablé";"48.7309722";"7.7082875";"1556";"92817"
"25 rue ehrmann";"25 rue ehrmann";"48.593345916916";"7.754684686660767";"1557";"92817"
"1 allée Kastner";"1 allée Kastner";"48.596790927452474";"7.777585387229919";"1558";"95262"
"6 quai Saint Thomas";"6 quai Saint Thomas";"48.57907731187228";"7.747807502746582";"1560";"92817"
"4 rue Modeste Schickele";"4 rue Modeste Schickele";"48.5806587";"7.7545626";"1561";"5770"
"27 rue Sainte Madeleine";"27 Rue Sainte-Madeleine";"48.5789850372039";"7.754985094070435";"1562";"92817"
"25 rue Sainte Madeleine";"25 Rue Sainte-Madeleine";"48.57915006678051";"7.754770517349243";"1563";"92817"
"1 place des Orphelins";"1 place des Orphelins";"48.5789279";"7.7542416";"1564";"86904"
"1 place des Orphelins";"1 a place des Orphelins";"48.57895664496438";"7.754019498825073";"1565";"86904"
"1 place Eisenhower";"1 place Eisenhower";"48.58628131408543";"7.759727239608765";"1566";"56806"
"20 rue de la division leclerc";"20 rue de la Division Leclerc";"48.57959053402013";"7.7476948499679565";"1567";"93858"
"7 quai Saint Thomas";"7 quai Saint Thomas";"48.579119900123956";"7.748000621795654";"1568";"92817"
"5 quai Saint Thomas";"5 quai Saint Thomas";"48.5789164";"7.7476341";"1569";"92817"
"3 rue des Francs Bourgeois";"3 rue des Francs Bourgeois";"48.58278945306372";"7.745758295059204";"1570";"87943"
"1 rue des Francs Bourgeois";"1 rue des Francs Bourgeois";"48.58291011082221";"7.745565176010132";"1571";"87940"
"9 Place Kleber";"9 Place Kléber";"48.583002378325524";"7.745629549026489";"1572";"87940"
"11 place des Orphelins";"11 place des Orphelins";"48.57853785757886";"7.754046320915222";"1573";"92817"
"4 place des Orphelins";"4 place des Orphelins";"48.5789286";"7.7545586";"1574";"5794"
"7 Boulevard Leblois";"7 Boulevard Leblois";"48.582796550586906";"7.770627737045288";"1575";"74773"
"21 rue de Lisbonne";"21 Rue de Lisbonne";"48.6758064";"7.8116907";"1576";"92817"
"4 Rue des Vignes";"4 bis Rue des Vignes";"48.61511542751357";"7.689828872680664";"1577";"92817"
"7 Impasse de La Klamm";"7 Impasse de La Klamm";"48.61605878546725";"7.688734531402588";"1578";"92817"
"47 avenue de la Forêt noire";"47 avenue de la Forêt Noire";"48.58432959223574";"7.770456075668335";"1579";"92817"
"12 rue de Lisbonne";"12 Rue de Lisbonne";"48.675183";"7.8093133";"1580";"92817"
"59 rue Saint-Urbain";"59 rue Saint Urbain";"48.5699329";"7.7648258";"1581";"92817"
"3 rue de Lisbonne";"3 Rue de Lisbonne";"48.6758603890058";"7.809433937072754";"1582";"92817"
"9 Rue d' Athènes";"9 Rue d' Athènes";"48.6765348";"7.8110166";"1583";"92817"
"6 rue de Lisbonne";"6 Rue de Lisbonne";"48.675911751205504";"7.808637320995331";"1584";"50445"
"4 rue de Lisbonne";"4 Rue de Lisbonne";"48.6759816";"7.8092618";"1585";"92817"
"1 rue de Lisbonne";"1 Rue de Lisbonne";"48.8777717";"2.3154746";"1586";"NULL"
"3 rue de la douane";"3 rue de la Douane";"48.579293801779194";"7.748483419418335";"1587";"86159"
"20 rue de Lisbonne";"20 Rue de Lisbonne";"48.6748312";"7.8104353";"1588";"92817"
"22 rue de Lisbonne";"22 Rue de Lisbonne";"48.6749094";"7.8107295";"1589";"92817"
"16 rue de Lisbonne";"16 Rue de Lisbonne";"48.6749203";"7.8098022";"1590";"92817"
"59 route du Rhin";"59 Avenue du Rhin";"48.57297972355576";"7.79430627822876";"1591";"88521"
"6 rue Simonis";"6 rue Simonis";"48.56534782896825";"7.758139371871948";"1592";"78908"
"8 rue de Lisbonne";"8 Rue de Lisbonne";"48.6755775";"7.8091081";"1595";"92817"
"1 boulevard de Lyon";"1 boulevard de Lyon";"48.57514484202963";"7.733441591262817";"1596";"69288"
"2 boulevard de Nancy";"2 boulevard de Nancy";"48.58028219064028";"7.731612324714661";"1597";"92817"
"16 rue de Mutzig";"16 rue de Mutzig";"48.58015087976836";"7.73186981678009";"1598";"92817"
"1 place de la Porte Blanche";"1 ter place de la Porte Blanche";"48.58012781160699";"7.731660604476929";"1600";"92817"
"6 quai Saint Jean";"6 quai Saint Jean";"48.583314667086945";"7.73837149143219";"1601";"31160"
"1 rue du Maire Kuss";"1 rue du Maire Kuss";"48.583477908171574";"7.738162279129028";"1602";"92817"
"2 rue de la course";"2 bis rue de la Course";"0";"0";"1603";"92817"
"15 boulevard de Nancy";"15 boulevard de Nancy";"48.58093696543726";"7.731499671936035";"1604";"5929"
"17 boulevard de Nancy";"17 boulevard de Nancy";"40.6721664";"-73.5534976";"1605";"92817"
"19 boulevard de Nancy";"19 boulevard de Nancy";"48.580839";"7.7314534";"1606";"92817"
"21 boulevard de Nancy";"21 boulevard de Nancy";"48.5809047";"7.7314968";"1607";"92817"
"19 rue Frédéric";"19 rue Frédéric";"48.5672345";"7.7600437";"1608";"92817"
"6 rue du Maennelstein";"6 rue du Maennelstein";"48.5674819";"7.7603551";"1609";"92817"
"11 rue du Maennelstein";"11 rue du Maennelstein";"48.567213";"7.7607253";"1610";"92817"
"9 rue du Maennelstein";"9 rue du Maennelstein";"48.5674861";"7.7603735";"1611";"92817"
"1 quai Saint Thomas";"1 ter quai Saint Thomas";"48.57909150796015";"7.7462732791900635";"1612";"92817"
"14 rue de Lisbonne";"14 Rue de Lisbonne";"48.6750297";"7.8095303";"1613";"92817"
"7 quai Rouget de Lisle";"7 quai Rouget de Lisle";"48.58746295631915";"7.763577550649643";"1614";"108889"
"7 rue de la Ziegelau";"7 rue de la Ziegelau";"48.56360830577501";"7.764630317687988";"1615";"92817"
"7 rue de Lisbonne";"7 Rue de Lisbonne";"48.6752387";"7.8093086";"1616";"92817"
"39 rue Oberlin";"39 Rue Oberlin J.F.";"48.59292370070175";"7.7572301030159";"1617";"92817"
"41 rue Oberlin";"41 Rue Oberlin J.F.";"48.59299820970183";"7.75734007358551";"1618";"92817"
"24 avenue de la Forêt noire";"24 avenue de la Forêt Noire";"48.58529126823932";"7.76608407497406";"1619";"92817"
"43 rue Goethe";"43 rue Goethe";"48.58435798145738";"7.767902612686157";"1620";"92817"
